{"type": "FeatureCollection", "name": "CANALES DE RIEGO", "crs": {"type": "name", "properties": {"name": "urn:ogc:def:crs:OGC:1.3:CRS84"}}, "features": [{"type": "Feature", "properties": {"RIEGO_DREN": "Riego"}, "geometry": {"type": "LineString", "coordinates": [[-76.1292399, 4.371535], [-76.1282195, 4.371172], [-76.1280423, 4.3708336], [-76.1275296, 4.3705934], [-76.1259787, 4.3700521], [-76.1245655, 4.3696921], [-76.1229617, 4.3694121], [-76.1209624, 4.3691606], [-76.1193459, 4.3689756], [-76.1180882, 4.3688317], [-76.1154687, 4.3682566], [-76.1151299, 4.3680702], [-76.1147591, 4.3678205], [-76.1139694, 4.3670423], [-76.1133803, 4.3664297], [-76.1130466, 4.3660874], [-76.1129757, 4.3660108], [-76.1126645, 4.3655449], [-76.1120321, 4.364436], [-76.1117211, 4.3637492], [-76.1116817, 4.3636622], [-76.1113996, 4.3634571], [-76.1112934, 4.3633236], [-76.1109329, 4.3630134], [-76.109747, 4.3616845], [-76.1093608, 4.3612528], [-76.1089634, 4.3607997], [-76.108169, 4.3598552], [-76.1075352, 4.3591309], [-76.1069529, 4.3584], [-76.1066538, 4.3580008], [-76.106312, 4.3575619], [-76.1060908, 4.3572812], [-76.1058945, 4.3570382], [-76.1058187, 4.3568872], [-76.1056291, 4.3564539], [-76.1055287, 4.3562677], [-76.1054496, 4.3561778], [-76.1052374, 4.3560919], [-76.104623, 4.3558226], [-76.1041128, 4.3556783], [-76.1029435, 4.3553664], [-76.1023132, 4.3551526], [-76.1020343, 4.355054], [-76.1018225, 4.3549482], [-76.1016097, 4.3547866], [-76.1011826, 4.3543638], [-76.101025, 4.3541725], [-76.1008994, 4.3539939], [-76.1006614, 4.3537258], [-76.1004039, 4.353484], [-76.1003472, 4.3533734], [-76.1015748, 4.3474308], [-76.1018576, 4.346206], [-76.1018816, 4.3460491], [-76.1020941, 4.343143], [-76.1022812, 4.3405226], [-76.1024512, 4.337349], [-76.1023972, 4.3368422]]}}, {"type": "Feature", "properties": {"RIEGO_DREN": "Riego"}, "geometry": {"type": "LineString", "coordinates": [[-76.1057912, 4.3567829], [-76.112282, 4.3580765]]}}, {"type": "Feature", "properties": {"RIEGO_DREN": "Riego"}, "geometry": {"type": "LineString", "coordinates": [[-76.1124595, 4.3649395], [-76.1268509, 4.368183]]}}, {"type": "Feature", "properties": {"RIEGO_DREN": "Riego"}, "geometry": {"type": "LineString", "coordinates": [[-76.1419178, 4.3453328], [-76.1428528, 4.3443132], [-76.1430034, 4.3441491], [-76.1432665, 4.3441494], [-76.1439167, 4.3442633], [-76.146737, 4.3424987], [-76.1470681, 4.3422791], [-76.1474153, 4.3420489], [-76.1476052, 4.3418558], [-76.147767, 4.3416083], [-76.1479146, 4.3412464], [-76.1479561, 4.340983], [-76.1479566, 4.3405705], [-76.1479565, 4.3400051], [-76.1482514, 4.3394406]]}}, {"type": "Feature", "properties": {"RIEGO_DREN": "Riego"}, "geometry": {"type": "LineString", "coordinates": [[-76.1033358, 4.3352221], [-76.1036566, 4.3346104], [-76.1039392, 4.3337948], [-76.1044093, 4.3330512], [-76.1047717, 4.3326733], [-76.1052362, 4.3324502], [-76.1059827, 4.3323005], [-76.1067563, 4.3322969], [-76.1077169, 4.3324415], [-76.108212, 4.3325896], [-76.1084291, 4.3327308], [-76.1085612, 4.3329079], [-76.1086345, 4.3332816], [-76.1086982, 4.3338852], [-76.1092068, 4.3344668], [-76.109912, 4.3353071], [-76.1103948, 4.3354195], [-76.1107766, 4.3354198], [-76.1110481, 4.3354201], [-76.1115216, 4.3354205]]}}, {"type": "Feature", "properties": {"RIEGO_DREN": "Riego"}, "geometry": {"type": "LineString", "coordinates": [[-76.1115216, 4.3354205], [-76.1120029, 4.3355043], [-76.1124107, 4.3356811], [-76.112786, 4.3357084], [-76.1130128, 4.3355974], [-76.1132301, 4.3354911], [-76.1134707, 4.3354593], [-76.1138576, 4.3355738], [-76.1142999, 4.3355713], [-76.114563, 4.3354205], [-76.1149996, 4.3351013], [-76.1157588, 4.3345338], [-76.116248, 4.3341681], [-76.1166292, 4.3339323], [-76.1170175, 4.3336503], [-76.1172366, 4.3335627], [-76.1175838, 4.3335851], [-76.1179184, 4.3336609], [-76.1181748, 4.3337569], [-76.1184373, 4.333789], [-76.118801, 4.3337736], [-76.1192218, 4.3336948], [-76.1196203, 4.3337239], [-76.1201039, 4.3339466], [-76.1205527, 4.3342296], [-76.1208357, 4.3344366], [-76.1211804, 4.3346886], [-76.1215033, 4.3349248], [-76.1216598, 4.3351531], [-76.1218473, 4.3354266], [-76.1221038, 4.3355162], [-76.1223468, 4.335555], [-76.1226873, 4.3356178], [-76.1231794, 4.3357087], [-76.1234896, 4.3356107], [-76.1237507, 4.3354441], [-76.1240543, 4.335236], [-76.1244697, 4.3350376], [-76.1248582, 4.3348508], [-76.1250614, 4.3346974], [-76.1252216, 4.3345383], [-76.125466, 4.3341565], [-76.1256935, 4.3338786], [-76.1258555, 4.3336806], [-76.1262352, 4.3334971]]}}, {"type": "Feature", "properties": {"RIEGO_DREN": "Riego"}, "geometry": {"type": "LineString", "coordinates": [[-76.1013471, 4.2667457], [-76.1016366, 4.2668915], [-76.1022152, 4.2675466], [-76.102504, 4.2682013], [-76.1027934, 4.2684198], [-76.1035695, 4.2690302], [-76.1046907, 4.2702838], [-76.1058213, 4.271545], [-76.1084273, 4.2744486], [-76.1087985, 4.2748734], [-76.1091716, 4.275302], [-76.1101063, 4.2763508], [-76.1110541, 4.2773863], [-76.1121188, 4.2785432], [-76.1122472, 4.2787156], [-76.1128594, 4.2793967], [-76.1152149, 4.2819892], [-76.1170937, 4.2840451], [-76.1181169, 4.2851622], [-76.1197376, 4.2869279], [-76.1213394, 4.2886898], [-76.1228357, 4.2903227], [-76.1229091, 4.2904498], [-76.1237288, 4.2913601], [-76.1239879, 4.2913096], [-76.1259122, 4.2928492], [-76.1260813, 4.2930385], [-76.1261466, 4.2930923], [-76.1262133, 4.2931343], [-76.1263133, 4.293205], [-76.1263292, 4.293213], [-76.1263343, 4.2932172], [-76.1263391, 4.293221], [-76.1263418, 4.2932277], [-76.1263621, 4.2932397], [-76.1264145, 4.2932769], [-76.1264716, 4.2933164], [-76.1265264, 4.2933536], [-76.1266216, 4.2934267], [-76.1266942, 4.2934614], [-76.1268697, 4.2935858], [-76.1270335, 4.2937154], [-76.1271133, 4.2937706], [-76.1273633, 4.2939348], [-76.1275574, 4.2940678], [-76.1277153, 4.2941829], [-76.1278669, 4.2943002], [-76.1279383, 4.2943601], [-76.127999, 4.2944152], [-76.1281668, 4.294559], [-76.1283073, 4.2946692], [-76.1284133, 4.2947363], [-76.1285228, 4.2948154], [-76.1286383, 4.2949053], [-76.1287799, 4.2950035], [-76.129355, 4.2954121], [-76.129499, 4.2955176], [-76.1296085, 4.2955931], [-76.1297383, 4.2956925], [-76.12983, 4.2957584], [-76.1298907, 4.2957992], [-76.1300288, 4.2958986], [-76.1301454, 4.2959933], [-76.1303466, 4.2961562], [-76.130593, 4.2963359], [-76.1308704, 4.2965444], [-76.1310335, 4.296675], [-76.1312085, 4.2968128], [-76.1314515, 4.2969891], [-76.1317323, 4.2972034], [-76.1318752, 4.2972981], [-76.1320454, 4.2974131], [-76.1321192, 4.297473], [-76.1323216, 4.2976347], [-76.1324275, 4.2977222], [-76.1325013, 4.2977797], [-76.1328656, 4.2980242], [-76.1330228, 4.2981296], [-76.1331454, 4.2982171], [-76.1332264, 4.2982842], [-76.1332913, 4.2983524], [-76.1333561, 4.2984016], [-76.1334942, 4.298501], [-76.1336585, 4.2986161], [-76.1339033, 4.2987941], [-76.1340133, 4.2988773], [-76.1341037, 4.298948], [-76.1341826, 4.2990135], [-76.1342811, 4.2990881], [-76.1343918, 4.2991708], [-76.1345287, 4.2992643], [-76.1346002, 4.2993098], [-76.1347275, 4.2994236], [-76.1347728, 4.2994656], [-76.1350359, 4.2996597], [-76.1350739, 4.2997016], [-76.1352398, 4.299832], [-76.135368, 4.2999292], [-76.1354644, 4.2999987], [-76.1356227, 4.3001149], [-76.1358251, 4.3002659], [-76.1359275, 4.3003366], [-76.1360561, 4.3004229], [-76.136212, 4.3005331], [-76.1363359, 4.3006194], [-76.136493, 4.3007189], [-76.1366645, 4.3008351], [-76.1369228, 4.3010209], [-76.1370252, 4.3011023], [-76.1371204, 4.3011958], [-76.1372871, 4.3013156], [-76.1373436, 4.30134], [-76.1374609, 4.3014282], [-76.1376895, 4.3016044], [-76.1378579, 4.3017549], [-76.1380204, 4.3018775], [-76.1383656, 4.3021207], [-76.138518, 4.3022453], [-76.1388025, 4.3024694], [-76.1390287, 4.3026359], [-76.1392752, 4.3028037], [-76.1394514, 4.3029415], [-76.1396145, 4.3030386], [-76.1397335, 4.303144], [-76.1398216, 4.3032015], [-76.1399752, 4.3033213], [-76.1400823, 4.3033908], [-76.1402502, 4.3035011], [-76.1405193, 4.3036904], [-76.1406554, 4.3037858], [-76.1407407, 4.3038498], [-76.1408729, 4.3039528], [-76.141049, 4.3040894], [-76.141174, 4.3041829], [-76.1412621, 4.3042571], [-76.1413859, 4.3043601], [-76.1416451, 4.304563], [-76.1417419, 4.3046357], [-76.1418859, 4.3047268], [-76.1420419, 4.3048251], [-76.142171, 4.3049095], [-76.1422919, 4.305], [-76.142411, 4.3050983], [-76.1426038, 4.3052492], [-76.1427611, 4.3053621], [-76.1429479, 4.305502], [-76.1431397, 4.3056599], [-76.1436288, 4.3060268], [-76.1438348, 4.3061634], [-76.1442039, 4.3064282], [-76.1444527, 4.3066199], [-76.144536, 4.306687], [-76.1448193, 4.3068979], [-76.145198, 4.3071412]]}}, {"type": "Feature", "properties": {"RIEGO_DREN": "Riego"}, "geometry": {"type": "LineString", "coordinates": [[-76.1171645, 4.2622892], [-76.1272298, 4.2486969]]}}, {"type": "Feature", "properties": {"RIEGO_DREN": "Riego"}, "geometry": {"type": "LineString", "coordinates": [[-76.1272298, 4.2486969], [-76.131522, 4.2487232], [-76.1343049, 4.2493008]]}}, {"type": "Feature", "properties": {"RIEGO_DREN": "Riego"}, "geometry": {"type": "LineString", "coordinates": [[-76.1327573, 4.2501111], [-76.1327266, 4.2502388], [-76.132659, 4.2505117], [-76.1326152, 4.2506686], [-76.1325534, 4.2508995], [-76.132767, 4.2513115], [-76.1328706, 4.2515115], [-76.1329633, 4.2515987], [-76.1331117, 4.2517383], [-76.1332173, 4.2518156], [-76.1333361, 4.2519025], [-76.1334375, 4.2519264], [-76.1335509, 4.2519532], [-76.1336292, 4.252028], [-76.1337213, 4.2521161], [-76.1339044, 4.2524104], [-76.133973, 4.2525231], [-76.1340504, 4.2526503], [-76.1342341, 4.2528069], [-76.134476, 4.2531891], [-76.134756, 4.2535773], [-76.1349329, 4.2538227], [-76.1352042, 4.2541413], [-76.1352992, 4.2542529], [-76.1353711, 4.2543373], [-76.135413, 4.254458], [-76.1354128, 4.2546485], [-76.1354125, 4.2548681], [-76.1353833, 4.2550416], [-76.1353832, 4.2551608], [-76.1353829, 4.2554106], [-76.1354435, 4.2556931], [-76.1354839, 4.2558817], [-76.1356248, 4.2560712], [-76.1357549, 4.2562461], [-76.135866, 4.2563955], [-76.1360004, 4.2569284], [-76.1360555, 4.2572951], [-76.1360549, 4.2577447], [-76.136113, 4.2580314], [-76.1364891, 4.2584391], [-76.1368307, 4.2588126], [-76.1369646, 4.258959], [-76.1370376, 4.2591323]]}}, {"type": "Feature", "properties": {"RIEGO_DREN": "Riego"}, "geometry": {"type": "LineString", "coordinates": [[-76.1370362, 4.2591723], [-76.1329108, 4.2595973], [-76.1326081, 4.2596157], [-76.1255868, 4.2701082], [-76.1279516, 4.2722135]]}}, {"type": "Feature", "properties": {"RIEGO_DREN": "Riego"}, "geometry": {"type": "LineString", "coordinates": [[-76.1326081, 4.2596157], [-76.1301211, 4.2571674], [-76.1289626, 4.258857], [-76.1266634, 4.2566667], [-76.1242995, 4.2603276], [-76.1209219, 4.2571537]]}}, {"type": "Feature", "properties": {"RIEGO_DREN": "Riego"}, "geometry": {"type": "LineString", "coordinates": [[-76.1344874, 4.2492966], [-76.1347039, 4.2492997], [-76.1350057, 4.2493178], [-76.1352678, 4.2494302], [-76.1354787, 4.2495026], [-76.1356526, 4.2495901], [-76.1360943, 4.2497688], [-76.1386846, 4.2535967], [-76.1388393, 4.2539504], [-76.1389891, 4.2545227], [-76.1393227, 4.2553459], [-76.1396668, 4.2561908], [-76.1391483, 4.2567591], [-76.138666, 4.2572985], [-76.139534, 4.2593301]]}}, {"type": "Feature", "properties": {"RIEGO_DREN": "Riego"}, "geometry": {"type": "LineString", "coordinates": [[-76.1188708, 4.259985], [-76.1211824, 4.2620718], [-76.1210084, 4.2623011], [-76.1246326, 4.2653569], [-76.1230831, 4.267697]]}}, {"type": "Feature", "properties": {"RIEGO_DREN": "Riego"}, "geometry": {"type": "LineString", "coordinates": [[-76.1327573, 4.2501111], [-76.1315429, 4.2492723], [-76.1315137, 4.2492548], [-76.1318188, 4.248778]]}}, {"type": "Feature", "properties": {"RIEGO_DREN": "Riego"}, "geometry": {"type": "LineString", "coordinates": [[-76.139534, 4.2593301], [-76.1395444, 4.2594369], [-76.1391786, 4.2599876], [-76.1390051, 4.2602489], [-76.1394851, 4.261212], [-76.1403688, 4.2623077], [-76.1421369, 4.2638604], [-76.1422221, 4.2639457], [-76.1440189, 4.2659321], [-76.1433956, 4.2668403], [-76.1419568, 4.269104], [-76.1473233, 4.2743323]]}}, {"type": "Feature", "properties": {"RIEGO_DREN": "Riego"}, "geometry": {"type": "LineString", "coordinates": [[-76.1394155, 4.2555737], [-76.1397475, 4.2554503], [-76.1401895, 4.2554176], [-76.140304, 4.2556884], [-76.1403718, 4.2557898], [-76.14045, 4.2558702], [-76.140577, 4.2558703], [-76.1410601, 4.2557786], [-76.1413249, 4.2557044], [-76.1415084, 4.2556531], [-76.1416545, 4.2556122], [-76.1417073, 4.2556126], [-76.1420136, 4.2560488], [-76.1423547, 4.2565762], [-76.1424454, 4.2567164], [-76.1425796, 4.2568803], [-76.1429341, 4.2572847], [-76.1432111, 4.2575974], [-76.1433692, 4.2577729], [-76.1436111, 4.2580346], [-76.1438153, 4.2582479], [-76.144015, 4.2584582], [-76.1441291, 4.2585796], [-76.1441963, 4.2586428], [-76.144224, 4.2586668], [-76.1444636, 4.2589218], [-76.1445996, 4.25907], [-76.1446858, 4.2591679], [-76.1459818, 4.2605537], [-76.1464893, 4.2611377], [-76.1469393, 4.2614849], [-76.147691, 4.2619633], [-76.1464957, 4.2637248], [-76.1466795, 4.26442], [-76.1467099, 4.2645279], [-76.1468373, 4.2648139], [-76.1475028, 4.2658939], [-76.1482843, 4.2670229], [-76.1491229, 4.2682133], [-76.1500817, 4.2700461]]}}, {"type": "Feature", "properties": {"RIEGO_DREN": "Riego"}, "geometry": {"type": "LineString", "coordinates": [[-76.1279516, 4.2722135], [-76.1281504, 4.2723973], [-76.1282421, 4.2724731], [-76.1316296, 4.2673244], [-76.1385815, 4.2739421]]}}, {"type": "Feature", "properties": {"RIEGO_DREN": "Riego"}, "geometry": {"type": "LineString", "coordinates": [[-76.1439772, 4.2710724], [-76.140728, 4.2759454]]}}, {"type": "Feature", "properties": {"RIEGO_DREN": "Riego"}, "geometry": {"type": "LineString", "coordinates": [[-76.1228784, 4.2753804], [-76.1214746, 4.2751607], [-76.1209821, 4.2750994], [-76.120714, 4.2750523], [-76.1205175, 4.2749968], [-76.1202723, 4.2748696], [-76.1200617, 4.2747856], [-76.1197886, 4.2751839], [-76.1197844, 4.2752663], [-76.119746, 4.275324], [-76.1196665, 4.2753816], [-76.1185805, 4.2745113], [-76.1181397, 4.2741599], [-76.1177182, 4.2737458], [-76.1175295, 4.2735465], [-76.1175056, 4.2735193], [-76.1171994, 4.2733392], [-76.117163, 4.2733152], [-76.1170137, 4.2732062], [-76.1162989, 4.2726702], [-76.1161056, 4.272587], [-76.1149555, 4.2716234], [-76.1149184, 4.2715605], [-76.1148631, 4.2714669], [-76.114549, 4.2710643], [-76.1144224, 4.2708954], [-76.1142945, 4.2707539], [-76.1142277, 4.270682], [-76.1141605, 4.2706089], [-76.1141076, 4.2705316], [-76.1140598, 4.2704606], [-76.1140441, 4.2704378], [-76.1140066, 4.2703601], [-76.1139237, 4.2701973], [-76.113364, 4.2691411], [-76.1130995, 4.2686077], [-76.1131599, 4.2678987], [-76.1159847, 4.2641183], [-76.1173484, 4.2624641]]}}, {"type": "Feature", "properties": {"RIEGO_DREN": "Riego"}, "geometry": {"type": "LineString", "coordinates": [[-76.1188708, 4.259985], [-76.1184871, 4.259703]]}}, {"type": "Feature", "properties": {"RIEGO_DREN": "Riego"}, "geometry": {"type": "LineString", "coordinates": [[-76.1154158, 4.2588868], [-76.1143425, 4.2603536], [-76.1143937, 4.2606678]]}}, {"type": "Feature", "properties": {"RIEGO_DREN": "Riego"}, "geometry": {"type": "LineString", "coordinates": [[-76.1154158, 4.2588868], [-76.1161484, 4.2594939]]}}, {"type": "Feature", "properties": {"RIEGO_DREN": "Riego"}, "geometry": {"type": "LineString", "coordinates": [[-76.1501111, 4.2745773], [-76.1516, 4.2756483], [-76.1565589, 4.2850555]]}}, {"type": "Feature", "properties": {"RIEGO_DREN": "Riego"}, "geometry": {"type": "LineString", "coordinates": [[-76.1463075, 4.2780148], [-76.1503953, 4.28171], [-76.14264, 4.2931226]]}}, {"type": "Feature", "properties": {"RIEGO_DREN": "Riego"}, "geometry": {"type": "LineString", "coordinates": [[-76.1131599, 4.2678987], [-76.1084234, 4.2744443], [-76.1122449, 4.2787125], [-76.1143436, 4.2810302], [-76.1198029, 4.2870419], [-76.1228124, 4.2903615]]}}, {"type": "Feature", "properties": {"RIEGO_DREN": "Riego"}, "geometry": {"type": "LineString", "coordinates": [[-76.1084273, 4.2744486], [-76.0983121, 4.2881514], [-76.0978668, 4.2888184], [-76.0977647, 4.289077], [-76.0977183, 4.2894045], [-76.0976092, 4.2895779], [-76.0962255, 4.2914675], [-76.0970893, 4.2917795], [-76.0972261, 4.2918267], [-76.0973556, 4.2919208], [-76.0973993, 4.2919976], [-76.0974573, 4.2922578], [-76.0976663, 4.2924886], [-76.0984839, 4.2930836], [-76.0988857, 4.2933566], [-76.0991104, 4.2934967], [-76.0991386, 4.2935101], [-76.0992177, 4.2935212], [-76.0998415, 4.2935363], [-76.1000575, 4.2935544], [-76.1003726, 4.293692], [-76.1007247, 4.2939114], [-76.1008476, 4.2940632], [-76.1009089, 4.2941785], [-76.1010038, 4.2944228], [-76.1010875, 4.294524], [-76.101149, 4.2945746], [-76.1013291, 4.2945382], [-76.1016156, 4.2944632], [-76.1022569, 4.2940825], [-76.1026762, 4.2938335], [-76.1028026, 4.2937831], [-76.1030557, 4.2937315], [-76.1032792, 4.29379], [-76.1035709, 4.2939058], [-76.1049537, 4.2944493], [-76.1051999, 4.29458], [-76.1053716, 4.2947038], [-76.1054377, 4.2948491], [-76.1055282, 4.2952046], [-76.1057151, 4.2956207], [-76.1058869, 4.2959323], [-76.1061585, 4.296192], [-76.106437, 4.2962863], [-76.1066219, 4.2963089], [-76.106749, 4.29628], [-76.1068983, 4.2963585], [-76.1073112, 4.2966753], [-76.1075614, 4.2969705], [-76.1078411, 4.2973755], [-76.1080059, 4.2979968], [-76.1081713, 4.298376], [-76.1085281, 4.2990551], [-76.1089209, 4.2996678], [-76.1092061, 4.2999493], [-76.1096737, 4.3002178], [-76.1103445, 4.300489], [-76.1107358, 4.3005822], [-76.1110428, 4.3006554], [-76.1111927, 4.3006911], [-76.1114712, 4.3008852], [-76.1117382, 4.3013865], [-76.1122128, 4.3023017], [-76.1127004, 4.303096], [-76.113076, 4.3035167], [-76.1135809, 4.304138]]}}, {"type": "Feature", "properties": {"RIEGO_DREN": "Riego"}, "geometry": {"type": "LineString", "coordinates": [[-76.0992939, 4.2868214], [-76.1148822, 4.2983099]]}}, {"type": "Feature", "properties": {"RIEGO_DREN": "Riego"}, "geometry": {"type": "LineString", "coordinates": [[-76.1552116, 4.3362471], [-76.1550822, 4.336], [-76.1550252, 4.3358592], [-76.1549493, 4.3353702], [-76.1561897, 4.3326665], [-76.1573519, 4.3307339], [-76.1584523, 4.3288593], [-76.1611034, 4.3245358], [-76.162727, 4.3224052], [-76.1637677, 4.3210034], [-76.165163, 4.3194217], [-76.1657609, 4.3201266], [-76.1660779, 4.3206698]]}}, {"type": "Feature", "properties": {"RIEGO_DREN": "Riego"}, "geometry": {"type": "LineString", "coordinates": [[-76.1572244, 4.3309773], [-76.1597835, 4.3324679], [-76.1597874, 4.3323221], [-76.159758, 4.3321119], [-76.1597041, 4.3317252], [-76.1607049, 4.3319373], [-76.1607847, 4.3319265], [-76.1612505, 4.3313065], [-76.1612782, 4.3312692], [-76.161356, 4.3312746], [-76.1614555, 4.3313605], [-76.1616606, 4.3314733], [-76.1617584, 4.3314725], [-76.1619863, 4.3315185], [-76.1635804, 4.3350706], [-76.1638182, 4.335624]]}}, {"type": "Feature", "properties": {"RIEGO_DREN": "Riego"}, "geometry": {"type": "LineString", "coordinates": [[-76.1561897, 4.3326665], [-76.1547489, 4.3307085], [-76.154726, 4.3306974], [-76.154673, 4.3303902], [-76.1512233, 4.3290082], [-76.1518186, 4.3274463], [-76.1508955, 4.327017], [-76.1509571, 4.3268608]]}}, {"type": "Feature", "properties": {"RIEGO_DREN": "Riego"}, "geometry": {"type": "LineString", "coordinates": [[-76.1650111, 4.3192146], [-76.1652252, 4.3190767], [-76.165882, 4.3183382], [-76.1663943, 4.3181341], [-76.1666777, 4.3179411], [-76.1670732, 4.3175852], [-76.1633778, 4.3154882], [-76.1643368, 4.3134582], [-76.161919, 4.3121003], [-76.1618792, 4.3120756], [-76.1617868, 4.3120322], [-76.1635861, 4.3081478]]}}, {"type": "Feature", "properties": {"RIEGO_DREN": "Riego"}, "geometry": {"type": "LineString", "coordinates": [[-76.1651927, 4.3190976], [-76.163975, 4.3183838], [-76.163686, 4.3181945], [-76.1630564, 4.317608], [-76.162968, 4.3175201], [-76.1627052, 4.3171734], [-76.1626358, 4.3170663], [-76.1628427, 4.3166197], [-76.1603597, 4.3152201], [-76.1594514, 4.3171712], [-76.1587943, 4.3185808], [-76.1577857, 4.3184186], [-76.1574114, 4.3182576], [-76.1538536, 4.3162858]]}}, {"type": "Feature", "properties": {"RIEGO_DREN": "Riego"}, "geometry": {"type": "LineString", "coordinates": [[-76.1661068, 4.3202584], [-76.1672267, 4.3194794], [-76.1693559, 4.3182053], [-76.1681697, 4.3166465], [-76.1691628, 4.3156962], [-76.1701326, 4.3147535], [-76.1702748, 4.3146184], [-76.1705401, 4.3145411], [-76.1726326, 4.3144162], [-76.1725191, 4.3137293], [-76.1722781, 4.3127109], [-76.1721928, 4.3123506], [-76.172161, 4.3119288], [-76.1721062, 4.311546], [-76.1720741, 4.3112739], [-76.1720664, 4.3109478]]}}, {"type": "Feature", "properties": {"RIEGO_DREN": "Riego"}, "geometry": {"type": "LineString", "coordinates": [[-76.1720664, 4.3109478], [-76.1706027, 4.3110838], [-76.1699085, 4.3068465], [-76.1698821, 4.3064933], [-76.1501921, 4.2958419], [-76.1500906, 4.2955424], [-76.1500893, 4.2952505], [-76.1501895, 4.2949591], [-76.1511552, 4.294255], [-76.1513757, 4.2940824], [-76.1497363, 4.2926124], [-76.1415998, 4.2850769], [-76.1369853, 4.2808028]]}}, {"type": "Feature", "properties": {"RIEGO_DREN": "Riego"}, "geometry": {"type": "LineString", "coordinates": [[-76.1605677, 4.3014539], [-76.1583649, 4.3062346], [-76.1547281, 4.3041668], [-76.154093, 4.303805], [-76.1534278, 4.3046125], [-76.1527612, 4.3054471]]}}, {"type": "Feature", "properties": {"RIEGO_DREN": "Riego"}, "geometry": {"type": "LineString", "coordinates": [[-76.1527674, 4.30542], [-76.1525705, 4.3055887], [-76.1521822, 4.3059736], [-76.1518395, 4.3062354], [-76.1516602, 4.3064492], [-76.150821, 4.3082703]]}}, {"type": "Feature", "properties": {"RIEGO_DREN": "Riego"}, "geometry": {"type": "LineString", "coordinates": [[-76.1556512, 4.2987938], [-76.1551455, 4.2998196], [-76.1527375, 4.2984518], [-76.1524455, 4.2990808], [-76.1500586, 4.2977204], [-76.1493089, 4.2993293], [-76.149309, 4.2993294]]}}, {"type": "Feature", "properties": {"RIEGO_DREN": "Riego"}, "geometry": {"type": "LineString", "coordinates": [[-76.1481015, 4.3340446], [-76.1476793, 4.3334746], [-76.1475401, 4.3332202], [-76.14741, 4.3325637], [-76.1472063, 4.3317709], [-76.1471509, 4.3315606], [-76.1466569, 4.3307472], [-76.1460631, 4.3297487], [-76.145864, 4.329264], [-76.1457937, 4.3290612], [-76.1457527, 4.3287413], [-76.1457322, 4.3281525], [-76.1457897, 4.3277532], [-76.1459874, 4.3274635], [-76.1462455, 4.327169], [-76.1466399, 4.3268044], [-76.147566, 4.3258125], [-76.1477965, 4.3255657], [-76.1479125, 4.3252925], [-76.1478575, 4.3250704], [-76.147678, 4.3247162], [-76.1473865, 4.3241406], [-76.1471846, 4.3237422], [-76.1470485, 4.3234735], [-76.1468231, 4.3230286], [-76.1467609, 4.3228394], [-76.146781, 4.3226317], [-76.1468245, 4.3225065], [-76.1472251, 4.3215019], [-76.1472975, 4.3213225], [-76.1468492, 4.3211402], [-76.1468667, 4.3210504], [-76.1468945, 4.3208351], [-76.1468476, 4.3207041], [-76.146763, 4.3205831], [-76.1466955, 4.3205063], [-76.1465243, 4.3204568], [-76.1462854, 4.3202964], [-76.146176, 4.3201863], [-76.1461437, 4.3200971], [-76.1461467, 4.319994], [-76.1461504, 4.3198762], [-76.1461707, 4.3197416], [-76.1461903, 4.3196216], [-76.1462863, 4.3195215], [-76.146503, 4.3193955], [-76.1467262, 4.3192792], [-76.1468564, 4.3192112], [-76.1469531, 4.3191369], [-76.1470275, 4.3190368], [-76.1471101, 4.3188847], [-76.1471129, 4.3187834], [-76.147049, 4.3187359], [-76.1469669, 4.3186214], [-76.1468848, 4.3185068], [-76.1467305, 4.3183654], [-76.1466214, 4.3183027], [-76.1461803, 4.3180681]]}}, {"type": "Feature", "properties": {"RIEGO_DREN": "Riego"}, "geometry": {"type": "LineString", "coordinates": [[-76.1461803, 4.3180681], [-76.1455439, 4.3176862], [-76.1451372, 4.3174422], [-76.144986, 4.3173399], [-76.1448296, 4.3171927], [-76.1446769, 4.3169132], [-76.1445912, 4.3167066], [-76.1445462, 4.3166147], [-76.1443619, 4.3164741], [-76.1441823, 4.3163244], [-76.1441017, 4.3161994], [-76.1441115, 4.3160191], [-76.144191, 4.3158414], [-76.1442496, 4.3157317], [-76.1443812, 4.3155682], [-76.1444581, 4.3154536], [-76.1445532, 4.315281], [-76.1446011, 4.3151943], [-76.1445665, 4.3151227], [-76.1444888, 4.3150487], [-76.1443619, 4.3149821], [-76.1442335, 4.3150517], [-76.1439098, 4.3149499], [-76.1438106, 4.31492], [-76.1415539, 4.3146655], [-76.1365833, 4.3141096], [-76.1363178, 4.3140896], [-76.1335005, 4.3138432], [-76.1333806, 4.3139028], [-76.1330075, 4.3139769], [-76.1318463, 4.3144233], [-76.1317115, 4.3144585]]}}, {"type": "Feature", "properties": {"RIEGO_DREN": "Riego"}, "geometry": {"type": "LineString", "coordinates": [[-76.1263276, 4.3079164], [-76.1251097, 4.3097259], [-76.1228103, 4.3080751], [-76.1232438, 4.3074308], [-76.118519, 4.3040334], [-76.1166668, 4.3067781]]}}, {"type": "Feature", "properties": {"RIEGO_DREN": "Riego"}, "geometry": {"type": "LineString", "coordinates": [[-76.1222837, 4.303556], [-76.1177682, 4.3002232], [-76.1206165, 4.296014]]}}, {"type": "Feature", "properties": {"RIEGO_DREN": "Riego"}, "geometry": {"type": "LineString", "coordinates": [[-76.115418, 4.2649192], [-76.12181, 4.2725492]]}}, {"type": "Feature", "properties": {"RIEGO_DREN": "Riego"}, "geometry": {"type": "LineString", "coordinates": [[-76.1277119, 4.3151496], [-76.1274202, 4.3151133], [-76.1264711, 4.3145293], [-76.125507, 4.3137794], [-76.1283358, 4.3098789], [-76.1285416, 4.3095948], [-76.1264173, 4.3079772], [-76.1263276, 4.3079164], [-76.1268544, 4.3071338], [-76.1278138, 4.3078917], [-76.1279725, 4.3077499], [-76.1281656, 4.307578], [-76.12906, 4.3070969], [-76.1298028, 4.3066974], [-76.1304991, 4.3063151], [-76.1305958, 4.3063029], [-76.1317223, 4.3057269], [-76.1323178, 4.3054225], [-76.1329919, 4.3050778], [-76.1332667, 4.3048395], [-76.1346648, 4.3042414], [-76.1354203, 4.3039182], [-76.1356955, 4.3038185], [-76.1360952, 4.3036713], [-76.136821, 4.3035509], [-76.1376606, 4.3035206], [-76.1383046, 4.3035632], [-76.138799, 4.3035794], [-76.1389665, 4.3035848], [-76.1393718, 4.3029782]]}}, {"type": "Feature", "properties": {"RIEGO_DREN": "Riego"}, "geometry": {"type": "LineString", "coordinates": [[-76.0934031, 4.2748684], [-76.0937194, 4.2750553], [-76.0936396, 4.275253], [-76.0935491, 4.2754821], [-76.0935117, 4.2756227], [-76.0934848, 4.2757928], [-76.0934655, 4.2759253], [-76.0934583, 4.2760031], [-76.0934556, 4.2760887], [-76.0934581, 4.2761662], [-76.0934633, 4.2762256], [-76.0934843, 4.2763406], [-76.0935012, 4.2764157], [-76.0935178, 4.2765306], [-76.0935353, 4.2766301], [-76.0935475, 4.276718], [-76.0935478, 4.2768438], [-76.0935396, 4.2769017], [-76.0935248, 4.2769476], [-76.0934966, 4.277008], [-76.0934813, 4.2770351], [-76.0934732, 4.2770471], [-76.0934212, 4.2770906], [-76.0933978, 4.277124], [-76.0933706, 4.27718], [-76.0933452, 4.2772491], [-76.0933299, 4.2773086], [-76.0933243, 4.2774136], [-76.0914556, 4.278633]]}}, {"type": "Feature", "properties": {"RIEGO_DREN": "Riego"}, "geometry": {"type": "LineString", "coordinates": [[-76.0914556, 4.278633], [-76.0915326, 4.2787735], [-76.0915692, 4.2788442], [-76.0916357, 4.279039], [-76.0916914, 4.27924], [-76.0917301, 4.279357], [-76.0917464, 4.2796019], [-76.0917588, 4.2797133], [-76.0917654, 4.2797549], [-76.0917699, 4.2798069], [-76.0917724, 4.2798363], [-76.0917713, 4.2799348], [-76.0917637, 4.2799808], [-76.0917141, 4.2801707], [-76.091673, 4.2802489], [-76.0915772, 4.2804279], [-76.0913802, 4.2807765], [-76.0918109, 4.2810988], [-76.0925832, 4.2816769], [-76.0935383, 4.2823771], [-76.0937074, 4.2822287]]}}, {"type": "Feature", "properties": {"RIEGO_DREN": "Riego"}, "geometry": {"type": "LineString", "coordinates": [[-76.0937074, 4.2822287], [-76.0941507, 4.2826259], [-76.0939508, 4.2828309], [-76.0992795, 4.2868108]]}}, {"type": "Feature", "properties": {"RIEGO_DREN": "Riego"}, "geometry": {"type": "LineString", "coordinates": [[-76.0937194, 4.2750553], [-76.0940645, 4.2749569], [-76.0945078, 4.2750539], [-76.09548, 4.2757309], [-76.0963974, 4.2754818], [-76.0968723, 4.2752063], [-76.097177, 4.2750754], [-76.0974765, 4.2749287], [-76.0979849, 4.2748109], [-76.098037, 4.2747989], [-76.0981242, 4.2747199], [-76.0981716, 4.2746604], [-76.098258, 4.2745516], [-76.098329, 4.2744623], [-76.0983763, 4.274431], [-76.0984186, 4.2744029]]}}, {"type": "Feature", "properties": {"RIEGO_DREN": "Riego"}, "geometry": {"type": "LineString", "coordinates": [[-76.0984186, 4.2744029], [-76.0985116, 4.274363], [-76.0985943, 4.2743528], [-76.0986627, 4.2743443], [-76.0987479, 4.2743446], [-76.0988638, 4.2743449], [-76.0994146, 4.2744022], [-76.0996637, 4.2738636], [-76.1001774, 4.2742462], [-76.1053824, 4.2780104], [-76.1052616, 4.2781788], [-76.1055201, 4.2783658]]}}, {"type": "Feature", "properties": {"RIEGO_DREN": "Riego"}, "geometry": {"type": "LineString", "coordinates": [[-76.0656571, 4.3204462], [-76.0649404, 4.3202023], [-76.0646447, 4.3201749], [-76.0641785, 4.3202553], [-76.0611533, 4.3170212], [-76.0607039, 4.3179743], [-76.0597994, 4.3174243]]}}]}