{"type": "FeatureCollection", "name": "CANALES DE RIEGO", "crs": {"type": "name", "properties": {"name": "urn:ogc:def:crs:OGC:1.3:CRS84"}}, "features": [{"type": "Feature", "properties": {"Id": 0}, "geometry": {"type": "LineString", "coordinates": [[-76.2551025, 3.2574083], [-76.255716, 3.2576733], [-76.2560521, 3.2577176], [-76.257279, 3.2576891], [-76.2579317, 3.2576264], [-76.2584429, 3.2575162], [-76.2595361, 3.2572643], [-76.2607508, 3.2567263], [-76.2608689, 3.2566889], [-76.2611613, 3.2565079], [-76.2617898, 3.2558898], [-76.2620136, 3.2559087], [-76.2626042, 3.255903], [-76.2628095, 3.2557344], [-76.2629775, 3.2556846], [-76.263133, 3.255516], [-76.2632201, 3.2555348], [-76.2632703, 3.254985], [-76.2631509, 3.2547936], [-76.2631513, 3.2542386], [-76.2642352, 3.2540854], [-76.2643988, 3.254137], [-76.2652274, 3.2536547], [-76.266086, 3.253902], [-76.266311, 3.2538509], [-76.2663827, 3.2536762], [-76.2666384, 3.2535428], [-76.2666897, 3.2533374], [-76.2667104, 3.2529983]]}}]}