{"type": "FeatureCollection", "name": "LLAVES", "crs": {"type": "name", "properties": {"name": "urn:ogc:def:crs:OGC:1.3:CRS84"}}, "features": [{"type": "Feature", "properties": {"OBJECTID": 1, "ID": 0}, "geometry": {"type": "Point", "coordinates": [-76.2590363, 3.4006883]}}, {"type": "Feature", "properties": {"OBJECTID": 2, "ID": 0}, "geometry": {"type": "Point", "coordinates": [-76.2702832, 3.3930777]}}, {"type": "Feature", "properties": {"OBJECTID": 3, "ID": 0}, "geometry": {"type": "Point", "coordinates": [-76.2872353, 3.3783595]}}, {"type": "Feature", "properties": {"OBJECTID": 4, "ID": 0}, "geometry": {"type": "Point", "coordinates": [-76.273811, 3.3803457]}}, {"type": "Feature", "properties": {"OBJECTID": 6, "ID": 0}, "geometry": {"type": "Point", "coordinates": [-76.2731388, 3.3857087]}}, {"type": "Feature", "properties": {"OBJECTID": 10, "ID": 0}, "geometry": {"type": "Point", "coordinates": [-76.2693518, 3.3610799]}}, {"type": "Feature", "properties": {"OBJECTID": 11, "ID": 0}, "geometry": {"type": "Point", "coordinates": [-76.2697899, 3.3590242]}}, {"type": "Feature", "properties": {"OBJECTID": 12, "ID": 0}, "geometry": {"type": "Point", "coordinates": [-76.263867, 3.2691487]}}, {"type": "Feature", "properties": {"OBJECTID": 14, "ID": 0}, "geometry": {"type": "Point", "coordinates": [-76.3013047, 3.2562086]}}, {"type": "Feature", "properties": {"OBJECTID": 15, "ID": 0}, "geometry": {"type": "Point", "coordinates": [-76.2947125, 3.2544465]}}, {"type": "Feature", "properties": {"OBJECTID": 17, "ID": 0}, "geometry": {"type": "Point", "coordinates": [-76.4034081, 3.2711201]}}, {"type": "Feature", "properties": {"OBJECTID": 18, "ID": 0}, "geometry": {"type": "Point", "coordinates": [-76.4113177, 3.2534809]}}, {"type": "Feature", "properties": {"OBJECTID": 19, "ID": 0}, "geometry": {"type": "Point", "coordinates": [-76.4113881, 3.2520103]}}, {"type": "Feature", "properties": {"OBJECTID": 20, "ID": 0}, "geometry": {"type": "Point", "coordinates": [-76.4113203, 3.2434877]}}, {"type": "Feature", "properties": {"OBJECTID": 21, "ID": 0}, "geometry": {"type": "Point", "coordinates": [-76.4044299, 3.4427512]}}, {"type": "Feature", "properties": {"OBJECTID": 22, "ID": 0}, "geometry": {"type": "Point", "coordinates": [-76.4029215, 3.4432461]}}, {"type": "Feature", "properties": {"OBJECTID": 23, "ID": 0}, "geometry": {"type": "Point", "coordinates": [-76.4063515, 3.448951]}}, {"type": "Feature", "properties": {"OBJECTID": 24, "ID": 0}, "geometry": {"type": "Point", "coordinates": [-76.2967372, 3.2571426]}}, {"type": "Feature", "properties": {"OBJECTID": 25, "ID": 0}, "geometry": {"type": "Point", "coordinates": [-76.3015174, 3.2542685]}}, {"type": "Feature", "properties": {"OBJECTID": 26, "ID": 0}, "geometry": {"type": "Point", "coordinates": [-76.3100715, 3.2533028]}}, {"type": "Feature", "properties": {"OBJECTID": 27, "ID": 0}, "geometry": {"type": "Point", "coordinates": [-76.3103175, 3.2528434]}}, {"type": "Feature", "properties": {"OBJECTID": 28, "ID": 0}, "geometry": {"type": "Point", "coordinates": [-76.3091947, 3.2541489]}}, {"type": "Feature", "properties": {"OBJECTID": 30, "ID": 0}, "geometry": {"type": "Point", "coordinates": [-76.2840806, 3.2584767]}}, {"type": "Feature", "properties": {"OBJECTID": 31, "ID": 0}, "geometry": {"type": "Point", "coordinates": [-76.295932, 3.3124817]}}, {"type": "Feature", "properties": {"OBJECTID": 32, "ID": 0}, "geometry": {"type": "Point", "coordinates": [-76.2762205, 3.3657251]}}, {"type": "Feature", "properties": {"OBJECTID": 33, "ID": 0}, "geometry": {"type": "Point", "coordinates": [-76.4115605, 3.2543381]}}, {"type": "Feature", "properties": {"OBJECTID": 35, "ID": 0}, "geometry": {"type": "Point", "coordinates": [-76.3958393, 3.2733275]}}, {"type": "Feature", "properties": {"OBJECTID": 37, "ID": 0}, "geometry": {"type": "Point", "coordinates": [-76.2644243, 3.2625518]}}, {"type": "Feature", "properties": {"OBJECTID": 38, "ID": 0}, "geometry": {"type": "Point", "coordinates": [-76.2643004, 3.262451]}}, {"type": "Feature", "properties": {"OBJECTID": 39, "ID": 0}, "geometry": {"type": "Point", "coordinates": [-76.264056, 3.2623754]}}, {"type": "Feature", "properties": {"OBJECTID": 40, "ID": 0}, "geometry": {"type": "Point", "coordinates": [-76.2718079, 3.2739469]}}, {"type": "Feature", "properties": {"OBJECTID": 41, "ID": 0}, "geometry": {"type": "Point", "coordinates": [-76.305331, 3.2457706]}}, {"type": "Feature", "properties": {"OBJECTID": 42, "ID": 0}, "geometry": {"type": "Point", "coordinates": [-76.2952897, 3.3861253]}}, {"type": "Feature", "properties": {"OBJECTID": 44, "ID": 0}, "geometry": {"type": "Point", "coordinates": [-76.2721332, 3.3766213]}}, {"type": "Feature", "properties": {"OBJECTID": 45, "ID": 0}, "geometry": {"type": "Point", "coordinates": [-76.2375568, 3.3801825]}}, {"type": "Feature", "properties": {"OBJECTID": 46, "ID": 0}, "geometry": {"type": "Point", "coordinates": [-76.2379055, 3.3808749]}}, {"type": "Feature", "properties": {"OBJECTID": 47, "ID": 0}, "geometry": {"type": "Point", "coordinates": [-76.2332428, 3.3668894]}}, {"type": "Feature", "properties": {"OBJECTID": 48, "ID": 0}, "geometry": {"type": "Point", "coordinates": [-76.4113114, 3.2633935]}}, {"type": "Feature", "properties": {"OBJECTID": 49, "ID": 0}, "geometry": {"type": "Point", "coordinates": [-76.2709482, 3.2757093]}}, {"type": "Feature", "properties": {"OBJECTID": 50, "ID": 0}, "geometry": {"type": "Point", "coordinates": [-76.2695816, 3.2708566]}}, {"type": "Feature", "properties": {"OBJECTID": 51, "ID": 0}, "geometry": {"type": "Point", "coordinates": [-76.2658221, 3.2689371]}}, {"type": "Feature", "properties": {"OBJECTID": 52, "ID": 0}, "geometry": {"type": "Point", "coordinates": [-76.2431726, 3.2716403]}}, {"type": "Feature", "properties": {"OBJECTID": 53, "ID": 0}, "geometry": {"type": "Point", "coordinates": [-76.2460697, 3.269233]}}, {"type": "Feature", "properties": {"OBJECTID": 54, "ID": 0}, "geometry": {"type": "Point", "coordinates": [-76.2779473, 3.3239555]}}, {"type": "Feature", "properties": {"OBJECTID": 55, "ID": 0}, "geometry": {"type": "Point", "coordinates": [-76.4324028, 3.2453156]}}, {"type": "Feature", "properties": {"OBJECTID": 56, "ID": 0}, "geometry": {"type": "Point", "coordinates": [-76.4108079, 3.2631838]}}, {"type": "Feature", "properties": {"OBJECTID": 57, "ID": 0}, "geometry": {"type": "Point", "coordinates": [-76.3046865, 3.2537964]}}, {"type": "Feature", "properties": {"OBJECTID": 58, "ID": 0}, "geometry": {"type": "Point", "coordinates": [-76.2963617, 3.2543258]}}, {"type": "Feature", "properties": {"OBJECTID": 59, "ID": 0}, "geometry": {"type": "Point", "coordinates": [-76.2943056, 3.2350219]}}, {"type": "Feature", "properties": {"OBJECTID": 60, "ID": 0}, "geometry": {"type": "Point", "coordinates": [-76.2464706, 3.2955805]}}, {"type": "Feature", "properties": {"OBJECTID": 61, "ID": 0}, "geometry": {"type": "Point", "coordinates": [-76.2372725, 3.3749539]}}, {"type": "Feature", "properties": {"OBJECTID": 62, "ID": 0}, "geometry": {"type": "Point", "coordinates": [-76.2979747, 3.4201091]}}, {"type": "Feature", "properties": {"OBJECTID": 63, "ID": 0}, "geometry": {"type": "Point", "coordinates": [-76.2979895, 3.4201146]}}, {"type": "Feature", "properties": {"OBJECTID": 64, "ID": 0}, "geometry": {"type": "Point", "coordinates": [-76.2833308, 3.2607026]}}, {"type": "Feature", "properties": {"OBJECTID": 65, "ID": 0}, "geometry": {"type": "Point", "coordinates": [-76.2439408, 3.2353483]}}, {"type": "Feature", "properties": {"OBJECTID": 66, "ID": 0}, "geometry": {"type": "Point", "coordinates": [-76.2434285, 3.2362571]}}, {"type": "Feature", "properties": {"OBJECTID": 67, "ID": 0}, "geometry": {"type": "Point", "coordinates": [-76.2408823, 3.2388602]}}, {"type": "Feature", "properties": {"OBJECTID": 68, "ID": 0}, "geometry": {"type": "Point", "coordinates": [-76.2409008, 3.2385805]}}, {"type": "Feature", "properties": {"OBJECTID": 69, "ID": 0}, "geometry": {"type": "Point", "coordinates": [-76.3599964, 3.1754559]}}, {"type": "Feature", "properties": {"OBJECTID": 70, "ID": 0}, "geometry": {"type": "Point", "coordinates": [-76.3607567, 3.1750242]}}, {"type": "Feature", "properties": {"OBJECTID": 71, "ID": 0}, "geometry": {"type": "Point", "coordinates": [-76.3716317, 3.1744709]}}, {"type": "Feature", "properties": {"OBJECTID": 72, "ID": 0}, "geometry": {"type": "Point", "coordinates": [-76.3376789, 3.1807225]}}, {"type": "Feature", "properties": {"OBJECTID": 73, "ID": 0}, "geometry": {"type": "Point", "coordinates": [-76.303984, 3.3080598]}}, {"type": "Feature", "properties": {"OBJECTID": 74, "ID": 0}, "geometry": {"type": "Point", "coordinates": [-76.2916267, 3.1535628]}}, {"type": "Feature", "properties": {"OBJECTID": 75, "ID": 0}, "geometry": {"type": "Point", "coordinates": [-76.2912147, 3.1534544]}}, {"type": "Feature", "properties": {"OBJECTID": 76, "ID": 0}, "geometry": {"type": "Point", "coordinates": [-76.3372039, 3.1543394]}}, {"type": "Feature", "properties": {"OBJECTID": 77, "ID": 0}, "geometry": {"type": "Point", "coordinates": [-76.3432109, 3.1581979]}}, {"type": "Feature", "properties": {"OBJECTID": 78, "ID": 0}, "geometry": {"type": "Point", "coordinates": [-76.2339065, 3.2564223]}}, {"type": "Feature", "properties": {"OBJECTID": 79, "ID": 0}, "geometry": {"type": "Point", "coordinates": [-76.2380868, 3.2567757]}}, {"type": "Feature", "properties": {"OBJECTID": 80, "ID": 0}, "geometry": {"type": "Point", "coordinates": [-76.2364748, 3.2567941]}}, {"type": "Feature", "properties": {"OBJECTID": 81, "ID": 0}, "geometry": {"type": "Point", "coordinates": [-76.2467315, 3.2568622]}}, {"type": "Feature", "properties": {"OBJECTID": 82, "ID": 0}, "geometry": {"type": "Point", "coordinates": [-76.2466193, 3.258188]}}, {"type": "Feature", "properties": {"OBJECTID": 83, "ID": 0}, "geometry": {"type": "Point", "coordinates": [-76.2551024, 3.2546184]}}, {"type": "Feature", "properties": {"OBJECTID": 84, "ID": 0}, "geometry": {"type": "Point", "coordinates": [-76.2623424, 3.2603129]}}, {"type": "Feature", "properties": {"OBJECTID": 85, "ID": 0}, "geometry": {"type": "Point", "coordinates": [-76.2636856, 3.269155]}}, {"type": "Feature", "properties": {"OBJECTID": 86, "ID": 0}, "geometry": {"type": "Point", "coordinates": [-76.2640343, 3.2693213]}}, {"type": "Feature", "properties": {"OBJECTID": 87, "ID": 0}, "geometry": {"type": "Point", "coordinates": [-76.2652915, 3.2692071]}}, {"type": "Feature", "properties": {"OBJECTID": 88, "ID": 0}, "geometry": {"type": "Point", "coordinates": [-76.271272, 3.2802795]}}, {"type": "Feature", "properties": {"OBJECTID": 89, "ID": 0}, "geometry": {"type": "Point", "coordinates": [-76.2714461, 3.3760506]}}, {"type": "Feature", "properties": {"OBJECTID": 90, "ID": 0}, "geometry": {"type": "Point", "coordinates": [-76.2730158, 3.386041]}}, {"type": "Feature", "properties": {"OBJECTID": 91, "ID": 0}, "geometry": {"type": "Point", "coordinates": [-76.3690028, 3.3602379]}}, {"type": "Feature", "properties": {"OBJECTID": 92, "ID": 0}, "geometry": {"type": "Point", "coordinates": [-76.3582836, 3.3690224]}}, {"type": "Feature", "properties": {"OBJECTID": 93, "ID": 0}, "geometry": {"type": "Point", "coordinates": [-76.3024, 3.3756118]}}, {"type": "Feature", "properties": {"OBJECTID": 94, "ID": 0}, "geometry": {"type": "Point", "coordinates": [-76.3063035, 3.3772535]}}, {"type": "Feature", "properties": {"OBJECTID": 95, "ID": 0}, "geometry": {"type": "Point", "coordinates": [-76.2948186, 3.3890697]}}, {"type": "Feature", "properties": {"OBJECTID": 96, "ID": 0}, "geometry": {"type": "Point", "coordinates": [-76.2090332, 3.4538637]}}, {"type": "Feature", "properties": {"OBJECTID": 97, "ID": 0}, "geometry": {"type": "Point", "coordinates": [-76.2088042, 3.4535929]}}]}