{"type": "FeatureCollection", "name": "VIAS DE ACCESO", "crs": {"type": "name", "properties": {"name": "urn:ogc:def:crs:OGC:1.3:CRS84"}}, "features": [{"type": "Feature", "properties": {"id": 1, "Nombre": "Via Principal", "Longitud": 1}, "geometry": {"type": "LineString", "coordinates": [[-76.094283, 4.3213174], [-76.0967815, 4.3233073], [-76.1035158, 4.3292068], [-76.1030706, 4.3372111], [-76.1032082, 4.3373714], [-76.1351467, 4.3440433], [-76.1364714, 4.3457907], [-76.1371613, 4.3465475], [-76.1412131, 4.3438417], [-76.1416596, 4.345433], [-76.1419419, 4.3465934]]}}, {"type": "Feature", "properties": {"id": 2, "Nombre": "Via Principal", "Longitud": 2}, "geometry": {"type": "LineString", "coordinates": [[-76.1164279, 4.3401453], [-76.1114276, 4.3633808]]}}, {"type": "Feature", "properties": {"id": 3, "Nombre": "Via Principal", "Longitud": 3}, "geometry": {"type": "LineString", "coordinates": [[-76.1032082, 4.3373787], [-76.1024792, 4.3461613]]}}, {"type": "Feature", "properties": {"id": 5, "Nombre": "Via Principal", "Longitud": 5}, "geometry": {"type": "LineString", "coordinates": [[-76.1130967, 4.358091], [-76.1446423, 4.3650842], [-76.1493712, 4.3610817]]}}, {"type": "Feature", "properties": {"id": 6, "Nombre": "Via de Acceso", "Longitud": 6}, "geometry": {"type": "LineString", "coordinates": [[-76.1412204, 4.3438417], [-76.1433418, 4.3430875], [-76.1426817, 4.3404523], [-76.1409817, 4.3375029], [-76.139075, 4.3346115], [-76.1388009, 4.3334905], [-76.1380652, 4.3304113], [-76.1373186, 4.3303376], [-76.1368979, 4.3305481], [-76.1364916, 4.3308387], [-76.1361429, 4.3313913], [-76.1357607, 4.3323001]]}}, {"type": "Feature", "properties": {"id": 8, "Nombre": "Via Principal", "Longitud": 8}, "geometry": {"type": "LineString", "coordinates": [[-76.1433454, 4.3430875], [-76.1454886, 4.342377], [-76.1467443, 4.3410508], [-76.1439705, 4.336083], [-76.1439578, 4.3360601]]}}, {"type": "Feature", "properties": {"id": 9, "Nombre": "Via Principal", "Longitud": 9}, "geometry": {"type": "LineString", "coordinates": [[-76.1404722, 4.3621295], [-76.1403467, 4.3651334], [-76.1403185, 4.3668275], [-76.1389896, 4.3722828]]}}, {"type": "Feature", "properties": {"id": 12, "Nombre": "V P", "Longitud": 12}, "geometry": {"type": "LineString", "coordinates": [[-76.0894053, 4.3233231], [-76.0976315, 4.3303436], [-76.1031604, 4.3350117]]}}, {"type": "Feature", "properties": {"id": 13, "Nombre": "V P", "Longitud": 13}, "geometry": {"type": "LineString", "coordinates": [[-76.1020135, 4.3278444], [-76.1069458, 4.3211353], [-76.1117346, 4.3246956], [-76.1165408, 4.3282297], [-76.1211124, 4.3316413], [-76.1195061, 4.3338136]]}}, {"type": "Feature", "properties": {"id": 14, "Nombre": "V P", "Longitud": 14}, "geometry": {"type": "LineString", "coordinates": [[-76.1210516, 4.331736], [-76.1242142, 4.3277329]]}}, {"type": "Feature", "properties": {"id": 15, "Nombre": "V P", "Longitud": 15}, "geometry": {"type": "LineString", "coordinates": [[-76.0972522, 4.3237118], [-76.0975568, 4.3235957], [-76.107493, 4.3149883], [-76.1091738, 4.3134535]]}}, {"type": "Feature", "properties": {"id": 16, "Nombre": "V.P", "Longitud": 16}, "geometry": {"type": "LineString", "coordinates": [[-76.1054541, 4.3469984], [-76.1035471, 4.3557212], [-76.1034817, 4.3558485], [-76.1033544, 4.3561576], [-76.1033508, 4.3561649], [-76.0994679, 4.3622727]]}}, {"type": "Feature", "properties": {"id": 15, "Nombre": "V.P", "Longitud": 15}, "geometry": {"type": "LineString", "coordinates": [[-76.0941169, 4.2828897], [-76.1177951, 4.3003371], [-76.1357883, 4.3135187], [-76.1387136, 4.3090607], [-76.1492005, 4.316821], [-76.1498076, 4.3173989], [-76.1502216, 4.3179768], [-76.1509943, 4.3189399], [-76.1513806, 4.3199031], [-76.1516014, 4.3205635], [-76.151491, 4.3216918], [-76.1513254, 4.3223247], [-76.1510495, 4.3232328], [-76.1507183, 4.3238107], [-76.1502492, 4.3243611], [-76.149918, 4.325049], [-76.1494488, 4.3265901], [-76.1490901, 4.3281861], [-76.1487313, 4.3293694], [-76.1483174, 4.3319286], [-76.1480628, 4.3342532], [-76.1482001, 4.3346047], [-76.1484347, 4.3348593], [-76.1487869, 4.3350051], [-76.1491926, 4.3351977], [-76.1535953, 4.3369781], [-76.153749, 4.336979], [-76.1546079, 4.3365318], [-76.1546718, 4.3364387], [-76.1555442, 4.3344312], [-76.1564162, 4.3327323], [-76.1571484, 4.3314873], [-76.1594149, 4.3276419], [-76.1614665, 4.324093], [-76.162881, 4.3221706], [-76.1637958, 4.3209579], [-76.16521, 4.3193382], [-76.1658209, 4.3201103], [-76.1660323, 4.3203667], [-76.166283, 4.3204878]]}}, {"type": "Feature", "properties": {"id": 16, "Nombre": "V. OVERO", "Longitud": 16}, "geometry": {"type": "LineString", "coordinates": [[-76.1651751, 4.3193847], [-76.1652274, 4.3193033], [-76.1652826, 4.3192539], [-76.1653585, 4.3191532], [-76.1659518, 4.3184721], [-76.1661243, 4.3183483], [-76.1664348, 4.3182313], [-76.1666497, 4.3181785], [-76.1670037, 4.3179402], [-76.167683, 4.3173355], [-76.1682907, 4.3166352], [-76.1685735, 4.3162018], [-76.1688633, 4.3157546], [-76.1689737, 4.3155758], [-76.1690979, 4.3153281], [-76.1692284, 4.3150552], [-76.1704702, 4.3120148], [-76.1705865, 4.3117675], [-76.1705812, 4.3111865], [-76.1705483, 4.3096978], [-76.1700914, 4.3076091], [-76.1699672, 4.3067835], [-76.1699327, 4.3050911], [-76.1698085, 4.3030409], [-76.1697947, 4.3026694], [-76.1696774, 4.3021603], [-76.169567, 4.3018438], [-76.1693187, 4.3011696], [-76.1690496, 4.300344], [-76.1687874, 4.2998349], [-76.1687184, 4.2996216], [-76.1686356, 4.2993877], [-76.1685873, 4.2991607], [-76.1685045, 4.2988992], [-76.1684149, 4.2986241], [-76.1684287, 4.2983695], [-76.1684355, 4.2981149], [-76.1685321, 4.297826], [-76.1687302, 4.2974901], [-76.170426, 4.2954196], [-76.1704639, 4.2939526], [-76.171347, 4.2916479], [-76.1713953, 4.291352], [-76.1713815, 4.2911938], [-76.1713539, 4.2909668], [-76.1712918, 4.2907948], [-76.1700845, 4.2880978], [-76.1691393, 4.2859926], [-76.1689944, 4.2857243], [-76.1687046, 4.2855179], [-76.16847, 4.285339], [-76.1681941, 4.2851876], [-76.1680285, 4.2849262], [-76.1660967, 4.2818852], [-76.1659449, 4.2814862], [-76.1655862, 4.2809496], [-76.1653516, 4.280578], [-76.1651446, 4.2801928], [-76.1648686, 4.279835], [-76.1638889, 4.2788993], [-76.1633646, 4.2783352], [-76.1626471, 4.2777985], [-76.1578866, 4.2727486], [-76.1546854, 4.2694461], [-76.1537885, 4.2685517], [-76.1530709, 4.2677674], [-76.152243, 4.2669418], [-76.1497317, 4.2638595], [-76.1492488, 4.2633091], [-76.1487796, 4.26291], [-76.1482829, 4.2624559], [-76.1478965, 4.2621257], [-76.1471514, 4.2616303], [-76.1464339, 4.2610386], [-76.1450954, 4.25958], [-76.143205, 4.2577499], [-76.1425289, 4.2568692], [-76.1418804, 4.2558785], [-76.1416803, 4.2555138], [-76.1415561, 4.2551698], [-76.1414871, 4.254812], [-76.1414112, 4.2544267], [-76.1413215, 4.254069], [-76.1411904, 4.2537869], [-76.1409421, 4.2537456], [-76.1397046, 4.2535186], [-76.1392817, 4.2533186], [-76.1388876, 4.2531551], [-76.1385979, 4.2529452], [-76.1362299, 4.2496931], [-76.1360229, 4.2493766], [-76.1359401, 4.2490739], [-76.1358297, 4.2486198], [-76.1357469, 4.2481932], [-76.1355124, 4.2477391], [-76.1351536, 4.2471336], [-76.1347121, 4.2464731], [-76.1344637, 4.2461016], [-76.1342567, 4.2456613], [-76.1341325, 4.2452347], [-76.1328784, 4.2448226], [-76.1317981, 4.2462068], [-76.1316471, 4.2463347], [-76.1314616, 4.2462879], [-76.1312414, 4.2462061], [-76.1310444, 4.246008], [-76.1305922, 4.2459143], [-76.1303603, 4.2458907], [-76.129909, 4.2450401]]}}, {"type": "Feature", "properties": {"id": 17, "Nombre": "V. LA MINIMA", "Longitud": 17}, "geometry": {"type": "LineString", "coordinates": [[-76.1283127, 4.242187], [-76.1288687, 4.2427698], [-76.1290769, 4.2432824], [-76.1292619, 4.2437484], [-76.1294235, 4.2443075], [-76.1298404, 4.2448436], [-76.1300247, 4.2453197], [-76.1235431, 4.2540109], [-76.0995535, 4.2866393], [-76.0978287, 4.2889922], [-76.0934408, 4.294964], [-76.0896876, 4.3000688], [-76.0860172, 4.3051736], [-76.0844994, 4.3071688], [-76.084113, 4.307843], [-76.0840854, 4.3082833], [-76.0843963, 4.3086877], [-76.084761, 4.3091539], [-76.0851432, 4.3095968], [-76.0883656, 4.3134375], [-76.0885129, 4.3138744], [-76.0883824, 4.3161214], [-76.0883765, 4.316232]]}}, {"type": "Feature", "properties": {"id": 18, "Nombre": "V.P", "Longitud": 18}, "geometry": {"type": "LineString", "coordinates": [[-76.1077084, 4.2927349], [-76.1152562, 4.2819747]]}}, {"type": "Feature", "properties": {"id": 19, "Nombre": "V.P", "Longitud": 19}, "geometry": {"type": "LineString", "coordinates": [[-76.0967563, 4.2847124], [-76.1028098, 4.2762204], [-76.1056663, 4.2781907]]}}, {"type": "Feature", "properties": {"id": 20, "Nombre": "V.P", "Longitud": 20}, "geometry": {"type": "LineString", "coordinates": [[-76.1314004, 4.3101958], [-76.13732, 4.3013897], [-76.1406316, 4.29645], [-76.1407006, 4.2962987], [-76.1405764, 4.2960923], [-76.1274127, 4.2863228]]}}, {"type": "Feature", "properties": {"id": 21, "Nombre": "V.A", "Longitud": 21}, "geometry": {"type": "LineString", "coordinates": [[-76.1092174, 4.3134099], [-76.1178503, 4.3003578], [-76.1241976, 4.2910287], [-76.1305, 4.2815974], [-76.1333613, 4.2773859], [-76.1366613, 4.2723891], [-76.1391966, 4.2686136], [-76.1443848, 4.2608804], [-76.1451713, 4.2596694]]}}, {"type": "Feature", "properties": {"id": 22, "Nombre": "V.P", "Longitud": 22}, "geometry": {"type": "LineString", "coordinates": [[-76.1402659, 4.2671413], [-76.1481794, 4.2749983]]}}, {"type": "Feature", "properties": {"id": 23, "Nombre": "V.P", "Longitud": 23}, "geometry": {"type": "LineString", "coordinates": [[-76.1209827, 4.2658958], [-76.1318972, 4.2488537], [-76.1274265, 4.24884]]}}, {"type": "Feature", "properties": {"id": 24, "Nombre": "V.P", "Longitud": 24}, "geometry": {"type": "LineString", "coordinates": [[-76.1172812, 4.2625786], [-76.1280091, 4.2723085], [-76.136906, 4.2805574], [-76.1441766, 4.2870925], [-76.1459203, 4.2886724], [-76.1491064, 4.2915522], [-76.1505372, 4.292893], [-76.151719, 4.2940064], [-76.151698, 4.2942897], [-76.1515876, 4.2944824], [-76.1509698, 4.2948729], [-76.1506631, 4.295074], [-76.1504975, 4.2952667], [-76.1504356, 4.2954079], [-76.1504218, 4.2956143], [-76.1505322, 4.2958069], [-76.1509219, 4.2960954], [-76.153217, 4.2972917], [-76.1560511, 4.2988321], [-76.1698844, 4.3066046]]}}, {"type": "Feature", "properties": {"id": 26, "Nombre": "V.P", "Longitud": 26}, "geometry": {"type": "LineString", "coordinates": [[-76.160757, 4.3014576], [-76.1606808, 4.3016237], [-76.1562215, 4.3114075], [-76.1672006, 4.3175778]]}}, {"type": "Feature", "properties": {"id": 28, "Nombre": "V.P", "Longitud": 28}, "geometry": {"type": "LineString", "coordinates": [[-76.1562099, 4.3114016], [-76.1533952, 4.3174264], [-76.1525059, 4.3194662]]}}, {"type": "Feature", "properties": {"id": 29, "Nombre": "V.P", "Longitud": 29}, "geometry": {"type": "LineString", "coordinates": [[-76.1585317, 4.3127138], [-76.1559928, 4.318307], [-76.1543232, 4.3226756], [-76.1532607, 4.3244987]]}}, {"type": "Feature", "properties": {"id": 30, "Nombre": "Via drenaje normandia", "Longitud": 30}, "geometry": {"type": "LineString", "coordinates": [[-76.1458042, 4.2887304], [-76.1423067, 4.2939192], [-76.1423178, 4.294385], [-76.1424909, 4.2950489], [-76.1433011, 4.296482], [-76.1440305, 4.2975891], [-76.1441808, 4.2979851], [-76.1444345, 4.299208]]}}, {"type": "Feature", "properties": {"id": 31, "Nombre": "V.P", "Longitud": 31}, "geometry": {"type": "LineString", "coordinates": [[-76.1458914, 4.2886141], [-76.1528881, 4.2781356], [-76.155703, 4.2755556], [-76.1559997, 4.2752323], [-76.1561377, 4.2750327], [-76.1563653, 4.2746887], [-76.1565861, 4.2743447], [-76.1578073, 4.2727073]]}}, {"type": "Feature", "properties": {"id": 32, "Nombre": "V.P", "Longitud": 32}, "geometry": {"type": "LineString", "coordinates": [[-76.1392345, 4.2684898], [-76.1391379, 4.2658616], [-76.135233, 4.2620775]]}}, {"type": "Feature", "properties": {"id": 33, "Nombre": "Via Estacion Drenaje Venecia", "Longitud": 33}, "geometry": {"type": "LineString", "coordinates": [[-76.1432093, 4.3123311], [-76.1454926, 4.3089514]]}}, {"type": "Feature", "properties": {"id": 34, "Nombre": "v.p", "Longitud": 34}, "geometry": {"type": "LineString", "coordinates": [[-76.109002, 4.2666322], [-76.1064493, 4.2622289]]}}, {"type": "Feature", "properties": {"id": 35, "Nombre": "Via Principal a Cumba", "Longitud": 35}, "geometry": {"type": "LineString", "coordinates": [[-76.0677576, 4.317789], [-76.0674824, 4.317736], [-76.0637352, 4.316008], [-76.061963, 4.3150942], [-76.061139, 4.3145666], [-76.0611492, 4.3141116], [-76.0611768, 4.3137264], [-76.060956, 4.3133961], [-76.0605145, 4.3132035], [-76.0598797, 4.3130659], [-76.0593002, 4.3129008], [-76.0583232, 4.3125602], [-76.0573543, 4.3122322], [-76.0564741, 4.3119173], [-76.0554101, 4.3117442], [-76.0547606, 4.3117345], [-76.0544736, 4.3116847], [-76.0542273, 4.3115563], [-76.0538684, 4.3114589], [-76.0537345, 4.311445], [-76.0535575, 4.311535], [-76.0531628, 4.3117731], [-76.052771, 4.3120404], [-76.0525795, 4.3121915], [-76.0524218, 4.312344], [-76.0522254, 4.3124006], [-76.0520892, 4.3123422], [-76.0519793, 4.312147], [-76.0519206, 4.3119485], [-76.0518232, 4.3118121], [-76.0517422, 4.3116082], [-76.0516554, 4.31148], [-76.0515975, 4.3114101], [-76.0514747, 4.3113851]]}}, {"type": "Feature", "properties": {"id": 40, "Nombre": "V.P", "Longitud": 40}, "geometry": {"type": "LineString", "coordinates": [[-76.1113837, 4.3633715], [-76.1114977, 4.363519], [-76.1117369, 4.3636066], [-76.1294468, 4.367477], [-76.1294441, 4.3675316], [-76.129201, 4.36841], [-76.1292798, 4.3684347], [-76.1286083, 4.370617], [-76.1283679, 4.3714872], [-76.1289874, 4.371821], [-76.1296124, 4.3720182], [-76.1298973, 4.3719241], [-76.1302972, 4.3717036], [-76.1319136, 4.3705267], [-76.1326885, 4.3704867], [-76.1342298, 4.3706606], [-76.1367897, 4.3715316], [-76.138991, 4.3722794], [-76.1418605, 4.3733882], [-76.1437604, 4.3738409], [-76.1458889, 4.3740073], [-76.1468351, 4.373943], [-76.14748, 4.373518], [-76.1476762, 4.3731663], [-76.1479706, 4.3725199], [-76.1481103, 4.3716358], [-76.1481763, 4.3710383], [-76.1481366, 4.3701377], [-76.1480982, 4.3682219], [-76.1480334, 4.3678943], [-76.1479439, 4.367665], [-76.1479449, 4.366879], [-76.148134, 4.365684], [-76.1483392, 4.3645954], [-76.1484868, 4.3639897], [-76.1489367, 4.3628769], [-76.1495419, 4.3615595], [-76.1498525, 4.3609786], [-76.150906, 4.3598993], [-76.1513306, 4.3594904], [-76.1515183, 4.3593433], [-76.1516247, 4.3591142], [-76.1515841, 4.3589177], [-76.1513478, 4.3587454], [-76.1504183, 4.3585396], [-76.1481104, 4.3582994], [-76.1462511, 4.3580596], [-76.1450517, 4.3584839], [-76.1441622, 4.3588348], [-76.1435746, 4.3592025], [-76.1433454, 4.3598244], [-76.1428954, 4.3610027], [-76.1426909, 4.361461], [-76.1425683, 4.3616573], [-76.1424703, 4.3617963], [-76.1423804, 4.3619272], [-76.1422416, 4.362099], [-76.141977, 4.3622995], [-76.141556, 4.3624256], [-76.141181, 4.3623269], [-76.140545, 4.3621705], [-76.1403575, 4.3620803], [-76.1399662, 4.3619651], [-76.1395668, 4.3617764], [-76.1391021, 4.3615629], [-76.1387518, 4.3612432], [-76.1384178, 4.3609399], [-76.1381326, 4.3607021], [-76.1377661, 4.3603332], [-76.1376299, 4.3600934], [-76.1373753, 4.3597433], [-76.1372481, 4.3592895], [-76.1371073, 4.3588178], [-76.1370404, 4.3584029], [-76.1371003, 4.3579418], [-76.137394, 4.3578276], [-76.1373372, 4.3576392], [-76.1368323, 4.3570082], [-76.1367754, 4.3567952], [-76.1367366, 4.3552233], [-76.1370725, 4.3540366], [-76.1370972, 4.3538811], [-76.1370647, 4.3537583], [-76.1368203, 4.3535533], [-76.1367062, 4.3534221], [-76.1366575, 4.3532665]]}}, {"type": "Feature", "properties": {"id": 3, "Nombre": "Via Principal", "Longitud": 3}, "geometry": {"type": "LineString", "coordinates": [[-76.1024937, 4.346154], [-76.1024443, 4.3462998], [-76.1340644, 4.3530603], [-76.1340725, 4.3524017], [-76.1341052, 4.3523035], [-76.1364056, 4.3534599], [-76.1365724, 4.3534128], [-76.1366668, 4.3532564]]}}, {"type": "Feature", "properties": {"id": 42, "Nombre": "VP", "Longitud": 42}, "geometry": {"type": "LineString", "coordinates": [[-76.1054577, 4.3469547], [-76.1072811, 4.33841]]}}, {"type": "Feature", "properties": {"id": 43, "Nombre": "VP", "Longitud": 43}, "geometry": {"type": "LineString", "coordinates": [[-76.1124223, 4.357962], [-76.1064476, 4.356765]]}}, {"type": "Feature", "properties": {"id": 46, "Nombre": "VP", "Longitud": 46}, "geometry": {"type": "LineString", "coordinates": [[-76.1113771, 4.3633588], [-76.111008, 4.3630699], [-76.1068178, 4.3582872], [-76.1066453, 4.3580739], [-76.1065832, 4.3579845], [-76.106497, 4.3578641], [-76.1064349, 4.3577162], [-76.1063441, 4.3574942], [-76.1062475, 4.3574013], [-76.1061268, 4.3573429], [-76.1060474, 4.3572844], [-76.106025, 4.3572108], [-76.1059912, 4.3571252], [-76.1058705, 4.356881], [-76.1057497, 4.3566505], [-76.1056738, 4.3565336], [-76.1055924, 4.3564407], [-76.1054837, 4.3563641], [-76.1053099, 4.3562711], [-76.1051523, 4.3561563], [-76.104598, 4.35597], [-76.1038968, 4.3558108], [-76.1036794, 4.3557451], [-76.1035435, 4.3557285], [-76.103405, 4.3560668], [-76.1032385, 4.3561138], [-76.1022674, 4.355836], [-76.1019703, 4.3557119], [-76.10163, 4.355384], [-76.1009278, 4.3545899], [-76.1006745, 4.3542184], [-76.100421, 4.3540798], [-76.0997469, 4.353948], [-76.0992107, 4.3537944], [-76.0989282, 4.3535685], [-76.0986965, 4.353379], [-76.0982761, 4.3532547], [-76.0974642, 4.3532464], [-76.0967392, 4.3532818], [-76.0956374, 4.3532003], [-76.0954054, 4.3531491], [-76.0951809, 4.3529523], [-76.0948985, 4.3527263], [-76.0942537, 4.3524344], [-76.0937101, 4.3523027], [-76.0931013, 4.3521928], [-76.0925942, 4.3519228], [-76.0919711, 4.3516091], [-76.091652, 4.3516815], [-76.0907525, 4.3521096], [-76.0900709, 4.3522688], [-76.0893963, 4.3525372], [-76.0892222, 4.3526098], [-76.0892218, 4.3528936], [-76.0891999, 4.3530391]]}}, {"type": "Feature", "properties": {"id": 3, "Nombre": "Via Principal", "Longitud": 3}, "geometry": {"type": "MultiLineString", "coordinates": [[[-76.1366704, 4.3532528], [-76.1383417, 4.3501475], [-76.1386542, 4.3495257], [-76.1388686, 4.349093], [-76.13921, 4.3485294], [-76.1398528, 4.347566], [-76.1413955, 4.3458468]], [[-76.1414391, 4.3458068], [-76.1416859, 4.3455415]], [[-76.141439, 4.3458141], [-76.1414027, 4.3458541]]]}}, {"type": "Feature", "properties": {"id": 45, "Nombre": "VP", "Longitud": 45}, "geometry": {"type": "LineString", "coordinates": [[-76.1339085, 4.3530419], [-76.1340886, 4.3530832], [-76.1339821, 4.353476], [-76.1352536, 4.354108], [-76.1366229, 4.3548302], [-76.1368267, 4.3549123]]}}, {"type": "Feature", "properties": {"id": 47, "Nombre": "VP", "Longitud": 47}, "geometry": {"type": "LineString", "coordinates": [[-76.1548647, 4.3363384], [-76.1570725, 4.335444], [-76.1584523, 4.3354853], [-76.1590319, 4.3354853], [-76.1591423, 4.3352376], [-76.1592527, 4.3348799], [-76.163406, 4.334591]]}}, {"type": "Feature", "properties": {"id": 48, "Nombre": "VP", "Longitud": 48}, "geometry": {"type": "LineString", "coordinates": [[-76.1574589, 4.3311787], [-76.159915, 4.3324446], [-76.1624539, 4.3325546]]}}, {"type": "Feature", "properties": {"id": 50, "Nombre": "VP", "Longitud": 50}, "geometry": {"type": "LineString", "coordinates": [[-76.14889, 4.33499], [-76.149028, 4.3342195], [-76.1492212, 4.3323895], [-76.1493729, 4.3306008], [-76.1494143, 4.3302018], [-76.1502561, 4.3267345], [-76.1506148, 4.3253861], [-76.1513047, 4.3243679], [-76.1516221, 4.3239689], [-76.1519326, 4.3232672], [-76.1522085, 4.322593], [-76.1522775, 4.3224829], [-76.1524362, 4.3218225], [-76.1526639, 4.3212652], [-76.152795, 4.3209832], [-76.1526639, 4.3203434], [-76.1524638, 4.3194421]]}}, {"type": "Feature", "properties": {"id": 51, "Nombre": "VP", "Longitud": 51}, "geometry": {"type": "LineString", "coordinates": [[-76.1692359, 4.3155276], [-76.1701466, 4.3163394], [-76.1706019, 4.3169035], [-76.1707675, 4.3172475]]}}, {"type": "Feature", "properties": {"id": 52, "Nombre": "VP", "Longitud": 52}, "geometry": {"type": "LineString", "coordinates": [[-76.1656483, 4.3041073], [-76.1687529, 4.2998418]]}}, {"type": "Feature", "properties": {"id": 53, "Nombre": "VP", "Longitud": 53}, "geometry": {"type": "LineString", "coordinates": [[-76.1352442, 4.2620586], [-76.1251171, 4.2519753]]}}, {"type": "Feature", "properties": {"id": 47, "Nombre": "VP", "Longitud": 47}, "geometry": {"type": "LineString", "coordinates": [[-76.1154456, 4.265068], [-76.1155267, 4.2650914], [-76.1157468, 4.2653479], [-76.1245555, 4.2757164]]}}, {"type": "Feature", "properties": {"id": 50, "Nombre": "VP", "Longitud": 50}, "geometry": {"type": "LineString", "coordinates": [[-76.1255352, 4.276831], [-76.1372501, 4.2591354]]}}, {"type": "Feature", "properties": {"id": 55, "Nombre": "VP", "Longitud": 55}, "geometry": {"type": "LineString", "coordinates": [[-76.1209826, 4.2659191], [-76.1169008, 4.2718292]]}}, {"type": "Feature", "properties": {"id": 57, "Nombre": "VP", "Longitud": 57}, "geometry": {"type": "LineString", "coordinates": [[-76.1167904, 4.2719668], [-76.1043442, 4.2903845]]}}, {"type": "Feature", "properties": {"id": 57, "Nombre": "VP", "Longitud": 57}, "geometry": {"type": "LineString", "coordinates": [[-76.1208352, 4.2959069], [-76.1026918, 4.2823832]]}}, {"type": "Feature", "properties": {"id": 60, "Nombre": "VP", "Longitud": 60}, "geometry": {"type": "LineString", "coordinates": [[-76.1188408, 4.2768323], [-76.1276084, 4.286033]]}}, {"type": "Feature", "properties": {"id": 62, "Nombre": "VP", "Longitud": 62}, "geometry": {"type": "LineString", "coordinates": [[-76.1188582, 4.2768498], [-76.1187554, 4.275563], [-76.1186924, 4.2749516], [-76.1184321, 4.2743924], [-76.1175806, 4.2735821], [-76.1171403, 4.2732789], [-76.1162592, 4.2728027]]}}, {"type": "Feature", "properties": {"id": 63, "Nombre": "VP", "Longitud": 63}, "geometry": {"type": "LineString", "coordinates": [[-76.1626635, 4.2776601], [-76.1638225, 4.270725], [-76.1650644, 4.2692664], [-76.1683484, 4.2626339]]}}, {"type": "Feature", "properties": {"id": 65, "Nombre": "VP", "Longitud": 65}, "geometry": {"type": "LineString", "coordinates": [[-76.1678931, 4.2634045], [-76.1622357, 4.2591663], [-76.1626359, 4.2585196], [-76.163105, 4.2581343], [-76.1634914, 4.257749]]}}, {"type": "Feature", "properties": {"id": 68, "Nombre": "VP", "Longitud": 68}, "geometry": {"type": "LineString", "coordinates": [[-76.1631464, 4.2750869], [-76.1676033, 4.2782242]]}}, {"type": "Feature", "properties": {"id": 70, "Nombre": "VP", "Longitud": 70}, "geometry": {"type": "LineString", "coordinates": [[-76.1667064, 4.2660602], [-76.1676723, 4.2668033], [-76.1691074, 4.2680142], [-76.1714531, 4.2716194], [-76.172557, 4.2731605], [-76.1714531, 4.275197], [-76.1747095, 4.2791874]]}}, {"type": "Feature", "properties": {"id": 71, "Nombre": "VP", "Longitud": 71}, "geometry": {"type": "LineString", "coordinates": [[-76.1681415, 4.2849941], [-76.1721122, 4.2818334]]}}, {"type": "Feature", "properties": {"id": 71, "Nombre": "VP", "Longitud": 71}, "geometry": {"type": "LineString", "coordinates": [[-76.1505484, 4.2647255], [-76.161946, 4.2548731]]}}, {"type": "Feature", "properties": {"id": 73, "Nombre": "VP", "Longitud": 73}, "geometry": {"type": "LineString", "coordinates": [[-76.1471402, 4.2614918], [-76.1477611, 4.261423], [-76.1479129, 4.2613267], [-76.1481889, 4.2610653], [-76.1484234, 4.2607901], [-76.1486718, 4.2604736], [-76.1491962, 4.259992], [-76.1518041, 4.2578178], [-76.1564956, 4.2538823], [-76.1530459, 4.2445871], [-76.1494238, 4.2347275], [-76.1474644, 4.2295672], [-76.1464434, 4.2267737], [-76.1460984, 4.2258105], [-76.1460984, 4.225549], [-76.146471, 4.224916], [-76.1469401, 4.2242142], [-76.1471057, 4.223994], [-76.1462364, 4.2228656], [-76.1459052, 4.2224941]]}}, {"type": "Feature", "properties": {"id": 76, "Nombre": "VP", "Longitud": 76}, "geometry": {"type": "LineString", "coordinates": [[-76.0640943, 4.316352], [-76.062986, 4.3190372], [-76.0618796, 4.3180635], [-76.0612831, 4.3173932], [-76.0611904, 4.3173698], [-76.0608878, 4.3181379]]}}, {"type": "Feature", "properties": {"id": 76, "Nombre": "VP", "Longitud": 76}, "geometry": {"type": "LineString", "coordinates": [[-76.0608502, 4.3181159], [-76.059881, 4.3207446]]}}, {"type": "Feature", "properties": {"id": 79, "Nombre": "VP", "Longitud": 79}, "geometry": {"type": "LineString", "coordinates": [[-76.0781857, 4.3196855], [-76.094192, 4.3334447]]}}, {"type": "Feature", "properties": {"id": 80, "Nombre": "VP", "Longitud": 80}, "geometry": {"type": "LineString", "coordinates": [[-76.0871866, 4.3215273], [-76.0872038, 4.3215647], [-76.0872037, 4.3216156], [-76.0872317, 4.3216447], [-76.0872652, 4.3216684], [-76.0873486, 4.3216722], [-76.0873993, 4.3216759], [-76.0873065, 4.3217769], [-76.0817435, 4.3282852], [-76.0794855, 4.3309311]]}}, {"type": "Feature", "properties": {"id": 81, "Nombre": "VP", "Longitud": 81}, "geometry": {"type": "LineString", "coordinates": [[-76.0836085, 4.3303076], [-76.0738668, 4.3219971]]}}, {"type": "Feature", "properties": {"id": 81, "Nombre": "VP", "Longitud": 81}, "geometry": {"type": "LineString", "coordinates": [[-76.0802279, 4.3197543], [-76.0764315, 4.3241666]]}}, {"type": "Feature", "properties": {"id": 83, "Nombre": "VP", "Longitud": 83}, "geometry": {"type": "LineString", "coordinates": [[-76.0753708, 4.3197681], [-76.0821391, 4.3195332], [-76.0848079, 4.3215088], [-76.0849909, 4.3215345], [-76.0871531, 4.3215209], [-76.087251, 4.3214319], [-76.0873797, 4.3214394], [-76.0874539, 4.3215195], [-76.0874574, 4.3215941], [-76.087432, 4.3216577], [-76.0893836, 4.3232904], [-76.0895794, 4.3232433], [-76.0900801, 4.3228546], [-76.0914047, 4.3214673], [-76.0917634, 4.3214261], [-76.0919428, 4.3213435], [-76.0920532, 4.3212403], [-76.0921015, 4.3210752], [-76.0921222, 4.320917], [-76.092067, 4.319259], [-76.0920256, 4.3182958], [-76.0919428, 4.318055], [-76.0917703, 4.3179243], [-76.0916185, 4.3178486], [-76.0913219, 4.317773], [-76.0908251, 4.317711], [-76.0904802, 4.317656], [-76.0902732, 4.3176216], [-76.0900731, 4.3175803], [-76.0898661, 4.3175184], [-76.0897006, 4.3174565], [-76.0895074, 4.3173189], [-76.0893556, 4.3172088], [-76.0890945, 4.3170829], [-76.0888221, 4.3169836], [-76.0886135, 4.3168203], [-76.0883063, 4.3166976], [-76.0883589, 4.3163542]]}}, {"type": "Feature", "properties": {"id": 84, "Nombre": "VP", "Longitud": 84}, "geometry": {"type": "LineString", "coordinates": [[-76.0942903, 4.3213174], [-76.092107, 4.3194516]]}}, {"type": "Feature", "properties": {"id": 85, "Nombre": "VP", "Longitud": 85}, "geometry": {"type": "LineString", "coordinates": [[-76.0821247, 4.3195149], [-76.0777213, 4.31634]]}}, {"type": "Feature", "properties": {"id": 86, "Nombre": "VP", "Longitud": 86}, "geometry": {"type": "LineString", "coordinates": [[-76.0897488, 4.3239371], [-76.0870167, 4.327198]]}}, {"type": "Feature", "properties": {"id": 87, "Nombre": "VP", "Longitud": 87}, "geometry": {"type": "LineString", "coordinates": [[-76.0955166, 4.3328943], [-76.1007422, 4.3269764]]}}, {"type": "Feature", "properties": {"id": 88, "Nombre": "VP", "Longitud": 88}, "geometry": {"type": "LineString", "coordinates": [[-76.1036028, 4.3292069], [-76.1073557, 4.332399], [-76.1078525, 4.3325641], [-76.1083492, 4.3327154], [-76.1086528, 4.3329356], [-76.1088045, 4.3333071], [-76.1088459, 4.333541], [-76.1088873, 4.3338574], [-76.1089701, 4.3340363], [-76.1093289, 4.3343803], [-76.1095221, 4.3346417], [-76.1097015, 4.3349306], [-76.1099222, 4.3352058], [-76.1101573, 4.3354085], [-76.1104397, 4.3356119], [-76.1105846, 4.3356323], [-76.1109157, 4.3354948], [-76.1115578, 4.3354846], [-76.1118492, 4.3354871], [-76.1119713, 4.335536], [-76.1122296, 4.3356754], [-76.1125577, 4.3358592], [-76.1127233, 4.3358938], [-76.112897, 4.3358596], [-76.1130342, 4.3356982], [-76.1131126, 4.3356241], [-76.1131866, 4.3355543], [-76.1133041, 4.3355174], [-76.113676, 4.3355702], [-76.1138368, 4.3356359], [-76.1139867, 4.3357475], [-76.1141032, 4.3358043], [-76.1142412, 4.3357906], [-76.1144136, 4.3356599], [-76.1155016, 4.3348652], [-76.1166509, 4.3340851], [-76.1168425, 4.3339063], [-76.117008, 4.3337581], [-76.1171908, 4.3336273], [-76.1173344, 4.3335795], [-76.1176839, 4.3335891], [-76.1179736, 4.3336854], [-76.1182013, 4.3338299], [-76.1183393, 4.3339469], [-76.1195916, 4.3338138], [-76.1198047, 4.333849], [-76.1199873, 4.3339453], [-76.1201459, 4.334076], [-76.120277, 4.3341723], [-76.1204633, 4.3342961], [-76.1206358, 4.3343787], [-76.1208773, 4.3344543], [-76.1210093, 4.3345591], [-76.1211818, 4.334683], [-76.1218602, 4.3353754], [-76.1219818, 4.3355502], [-76.1220469, 4.3356114], [-76.1221753, 4.3356736], [-76.1223547, 4.3356599], [-76.1225271, 4.3356461], [-76.1226789, 4.3356461], [-76.1228997, 4.3356805], [-76.1231343, 4.3357699], [-76.1232516, 4.3357906], [-76.1233778, 4.3357485], [-76.1235827, 4.3356461], [-76.1242179, 4.3352125], [-76.1244732, 4.3350818], [-76.1246319, 4.3350542], [-76.1247837, 4.3350267], [-76.1249768, 4.3349511], [-76.1251014, 4.3348381], [-76.1252118, 4.3346799], [-76.1253153, 4.3345147], [-76.1254593, 4.334339], [-76.1255973, 4.3341464], [-76.1257284, 4.3339744], [-76.1259354, 4.3337955], [-76.126038, 4.333704], [-76.1262904, 4.3336345], [-76.1265295, 4.3336915], [-76.1267729, 4.3338665], [-76.1270292, 4.3341244], [-76.1272155, 4.3342276], [-76.1273949, 4.3342964], [-76.1274727, 4.3342342], [-76.1275729, 4.3341557], [-76.127734, 4.3340205], [-76.1278672, 4.3339194], [-76.1280301, 4.3337546], [-76.1282608, 4.3335933], [-76.1284568, 4.3334189], [-76.1286919, 4.3332533], [-76.1288877, 4.3331443], [-76.1290227, 4.3330703], [-76.1291918, 4.3330869]]}}, {"type": "Feature", "properties": {"id": 89, "Nombre": "VP", "Longitud": 89}, "geometry": {"type": "LineString", "coordinates": [[-76.106238, 4.3313739], [-76.1144274, 4.3203872]]}}, {"type": "Feature", "properties": {"id": 89, "Nombre": "VP", "Longitud": 89}, "geometry": {"type": "LineString", "coordinates": [[-76.1099981, 4.3351989], [-76.1186153, 4.3234211]]}}, {"type": "Feature", "properties": {"id": 90, "Nombre": "VP", "Longitud": 90}, "geometry": {"type": "LineString", "coordinates": [[-76.1073029, 4.3383591], [-76.1081706, 4.3343796], [-76.1087571, 4.3349262], [-76.1091191, 4.335356], [-76.1093506, 4.3357128], [-76.1097055, 4.3359971], [-76.1100604, 4.3362377], [-76.1104444, 4.3363692], [-76.1108432, 4.3363697], [-76.1112058, 4.3362319], [-76.111764, 4.3362399], [-76.1124813, 4.3365683], [-76.1127568, 4.3365323], [-76.1132862, 4.3363874], [-76.11433, 4.3364906], [-76.114678, 4.3364547], [-76.1149101, 4.3363604], [-76.1152221, 4.3362007], [-76.1155194, 4.3361355], [-76.1156863, 4.3360339], [-76.1158678, 4.3358012], [-76.1159043, 4.3355539], [-76.1160714, 4.3352703], [-76.1166154, 4.3351036], [-76.1174712, 4.3347917], [-76.1179426, 4.3346177], [-76.1185662, 4.334553], [-76.1189505, 4.3344953], [-76.1193854, 4.3345686], [-76.1197186, 4.3347728], [-76.1200301, 4.3349333], [-76.1203127, 4.3350428], [-76.1207112, 4.3351815], [-76.1211745, 4.3357425], [-76.121551, 4.3361432], [-76.1218045, 4.3362818], [-76.1221307, 4.3363113], [-76.1226164, 4.3363338], [-76.1230439, 4.3365017], [-76.1232975, 4.3365893], [-76.1235875, 4.3365751], [-76.123914, 4.3364373], [-76.1240303, 4.33619], [-76.1241683, 4.3359136], [-76.1251114, 4.3354345], [-76.1255756, 4.3352095], [-76.1258079, 4.3349988], [-76.1260331, 4.3346206], [-76.1262363, 4.3344026], [-76.1264321, 4.3344247], [-76.1271274, 4.3349204], [-76.1274065, 4.3349498], [-76.1276602, 4.3349211], [-76.1279396, 4.3347249], [-76.1282226, 4.3344742], [-76.1284259, 4.3342671], [-76.1289696, 4.3342168], [-76.1292162, 4.3341553], [-76.1294626, 4.3342538], [-76.1297885, 4.3345235], [-76.1300457, 4.3345929], [-76.1304156, 4.3344697], [-76.1308981, 4.3341355], [-76.131134, 4.3339284], [-76.1312431, 4.3336375], [-76.1312979, 4.3333101], [-76.1313379, 4.333201], [-76.1314938, 4.3331393], [-76.1320086, 4.3330999], [-76.1323893, 4.3330131], [-76.1327085, 4.3328061], [-76.1329663, 4.3324717], [-76.1331986, 4.3321918], [-76.1334307, 4.332152], [-76.1337097, 4.3321924], [-76.134083, 4.3322584], [-76.1344054, 4.3323788], [-76.1347604, 4.3326085], [-76.1350249, 4.3326634], [-76.1338619, 4.338058], [-76.1326372, 4.343529]]}}, {"type": "Feature", "properties": {"id": 89, "Nombre": "Via P", "Longitud": 12}, "geometry": {"type": "LineString", "coordinates": [[-76.1199965, 4.3500734], [-76.1178949, 4.3591639]]}}, {"type": "Feature", "properties": {"id": 787, "Nombre": "VP", "Longitud": 45}, "geometry": {"type": "LineString", "coordinates": [[-76.1065095, 4.3567759], [-76.1070818, 4.3537202], [-76.1040575, 4.3530857]]}}, {"type": "Feature", "properties": {"id": 255, "Nombre": "Via Acceso a Fabrica", "Longitud": 254}, "geometry": {"type": "LineString", "coordinates": [[-76.0777285, 4.3163545], [-76.072112, 4.312228], [-76.0721494, 4.3118555], [-76.0719999, 4.311632], [-76.0718505, 4.3115947], [-76.0714022, 4.3120417]]}}, {"type": "Feature", "properties": {"id": 235, "Nombre": "Via Campamento Cumba", "Longitud": 1456}, "geometry": {"type": "LineString", "coordinates": [[-76.051487, 4.3114038], [-76.051383, 4.3113632], [-76.051243, 4.3113864], [-76.0507899, 4.311508], [-76.0506549, 4.3115544], [-76.050511, 4.3115254], [-76.0502671, 4.3111952], [-76.0501569, 4.3110152], [-76.0499658, 4.3108024], [-76.0498587, 4.310715], [-76.0496919, 4.310587], [-76.0493085, 4.3103089], [-76.0490994, 4.3101351], [-76.0488969, 4.3100413], [-76.0486114, 4.3098744]]}}, {"type": "Feature", "properties": {"id": 0, "Nombre": "", "Longitud": 0}, "geometry": {"type": "LineString", "coordinates": [[-76.0821283, 4.3195222], [-76.0849856, 4.3194393], [-76.0871937, 4.3194203], [-76.0872128, 4.3182972], [-76.0859945, 4.3168505], [-76.0856518, 4.3163555], [-76.0836431, 4.3141573]]}}, {"type": "Feature", "properties": {"id": 1, "Nombre": "entrada casa tequendama", "Longitud": null}, "geometry": {"type": "LineString", "coordinates": [[-76.1699422, 4.2877341], [-76.1743131, 4.284287]]}}, {"type": "Feature", "properties": {"id": 1, "Nombre": "entrada a campamento Morillo", "Longitud": null}, "geometry": {"type": "LineString", "coordinates": [[-76.1188654, 4.2640266], [-76.1179837, 4.2653965], [-76.1180083, 4.2654591], [-76.1185948, 4.265946], [-76.1185308, 4.2660973]]}}]}