{"type": "FeatureCollection", "name": "ESTACIONES DE BOMBEO", "crs": {"type": "name", "properties": {"name": "urn:ogc:def:crs:OGC:1.3:CRS84"}}, "features": [{"type": "Feature", "properties": {"Id": 0, "Nombre": "B. Luisa I"}, "geometry": {"type": "Point", "coordinates": [-76.1287219, 4.3719324]}}, {"type": "Feature", "properties": {"Id": 0, "Nombre": "B. La Isla"}, "geometry": {"type": "Point", "coordinates": [-76.1427983, 4.3614647]}}, {"type": "Feature", "properties": {"Id": 0, "Nombre": "B. Lagunas I"}, "geometry": {"type": "Point", "coordinates": [-76.1419726, 4.3466114]}}, {"type": "Feature", "properties": {"Id": 0, "Nombre": "B. Lagunas II"}, "geometry": {"type": "Point", "coordinates": [-76.1441102, 4.3362511]}}, {"type": "Feature", "properties": {"Id": 0, "Nombre": "B. Luisa II"}, "geometry": {"type": "Point", "coordinates": [-76.1064223, 4.3577363]}}, {"type": "Feature", "properties": {"Id": 0, "Nombre": "B. Luisa III"}, "geometry": {"type": "Point", "coordinates": [-76.1036459, 4.3370112]}}, {"type": "Feature", "properties": {"Id": 0, "Nombre": "B. La Ranchera"}, "geometry": {"type": "Point", "coordinates": [-76.1242142, 4.3277329]}}, {"type": "Feature", "properties": {"Id": 0, "Nombre": "B. Bocatoma"}, "geometry": {"type": "Point", "coordinates": [-76.0566423, 4.3123435]}}, {"type": "Feature", "properties": {"Id": 0, "Nombre": "B. El Mateo"}, "geometry": {"type": "Point", "coordinates": [-76.1489683, 4.3350431]}}, {"type": "Feature", "properties": {"Id": 0, "Nombre": "B. Los Chivos"}, "geometry": {"type": "Point", "coordinates": [-76.1660457, 4.3203829]}}, {"type": "Feature", "properties": {"Id": 0, "Nombre": "B. Ste 140"}, "geometry": {"type": "Point", "coordinates": [-76.1516418, 4.3178393]}}, {"type": "Feature", "properties": {"Id": 0, "Nombre": "B. Tequendama"}, "geometry": {"type": "Point", "coordinates": [-76.1743725, 4.2855454]}}, {"type": "Feature", "properties": {"Id": 0, "Nombre": "B. La Encanecada"}, "geometry": {"type": "Point", "coordinates": [-76.1438453, 4.2965808]}}, {"type": "Feature", "properties": {"Id": 0, "Nombre": "B. El Duran"}, "geometry": {"type": "Point", "coordinates": [-76.1368201, 4.2808326]}}, {"type": "Feature", "properties": {"Id": 0, "Nombre": "B. La Rita"}, "geometry": {"type": "Point", "coordinates": [-76.112383, 4.2561126]}}, {"type": "Feature", "properties": {"Id": 0, "Nombre": "B. Zanjon Negro"}, "geometry": {"type": "Point", "coordinates": [-76.1394206, 4.3031825]}}, {"type": "Feature", "properties": {"Id": 0, "Nombre": "B. Venecia"}, "geometry": {"type": "Point", "coordinates": [-76.1455158, 4.3090012]}}]}