{"type": "FeatureCollection", "name": "POZOS", "crs": {"type": "name", "properties": {"name": "urn:ogc:def:crs:OGC:1.3:CRS84"}}, "features": [{"type": "Feature", "properties": {"OBJECTID_1": 3, "OBJECTID": 3, "CODIGO": "8022", "CODIGO2": "VCN-158", "ESTE": 1079964.2542, "NORTE": 864311.8963, "Sector": 0.0, "Empresas": "Agricolas", "NUEVO__COD": 236225, "CODIGO_CVC": "VCN-158", "Caudal": 0}, "geometry": {"type": "Point", "coordinates": [-76.3581428, 3.3689584]}}, {"type": "Feature", "properties": {"OBJECTID_1": 4, "OBJECTID": 4, "CODIGO": "8028", "CODIGO2": "28028", "ESTE": 1075798.061, "NORTE": 853822.266, "Sector": 2123.0, "Empresas": "Agricolas", "NUEVO__COD": 236240, "CODIGO_CVC": "28028", "Caudal": 80}, "geometry": {"type": "Point", "coordinates": [-76.3956996, 3.274132]}}, {"type": "Feature", "properties": {"OBJECTID_1": 5, "OBJECTID": 5, "CODIGO": "8145", "CODIGO2": "28145", "ESTE": 1074928.014, "NORTE": 853435.4995, "Sector": 2123.0, "Empresas": "Agricolas", "NUEVO__COD": 236237, "CODIGO_CVC": "28145", "Caudal": 80}, "geometry": {"type": "Point", "coordinates": [-76.40353, 3.2706403]}}, {"type": "Feature", "properties": {"OBJECTID_1": 6, "OBJECTID": 6, "CODIGO": "8038", "CODIGO2": "28038", "ESTE": 1074023.6503, "NORTE": 850422.6317, "Sector": 2125.0, "Empresas": "Agricolas", "NUEVO__COD": 236282, "CODIGO_CVC": "28038", "Caudal": 80}, "geometry": {"type": "Point", "coordinates": [-76.4116859, 3.2434013]}}, {"type": "Feature", "properties": {"OBJECTID_1": 7, "OBJECTID": 7, "CODIGO": "8024", "CODIGO2": "28024", "ESTE": 1087136.2034, "NORTE": 849510.9038, "Sector": 0.0, "Empresas": "Agricolas", "NUEVO__COD": 0, "CODIGO_CVC": "28024", "Caudal": 0}, "geometry": {"type": "Point", "coordinates": [-76.2937222, 3.2350664]}}, {"type": "Feature", "properties": {"OBJECTID_1": 8, "OBJECTID": 8, "CODIGO": "8140", "CODIGO2": "28140", "ESTE": 1088205.2407, "NORTE": 852215.3707, "Sector": 0.0, "Empresas": "Agricolas", "NUEVO__COD": 236279, "CODIGO_CVC": "28140", "Caudal": 0}, "geometry": {"type": "Point", "coordinates": [-76.2840557, 3.2580602]}}, {"type": "Feature", "properties": {"OBJECTID_1": 9, "OBJECTID": 9, "CODIGO": "8021", "CODIGO2": "VF-28", "ESTE": 1088388.1879, "NORTE": 858810.1873, "Sector": 2110.0, "Empresas": "Agricolas", "NUEVO__COD": 236264, "CODIGO_CVC": "VF-28", "Caudal": 0}, "geometry": {"type": "Point", "coordinates": [-76.2821927, 3.3190118]}}, {"type": "Feature", "properties": {"OBJECTID_1": 10, "OBJECTID": 10, "CODIGO": "8026", "CODIGO2": "28026", "ESTE": 1090411.9749, "NORTE": 862319.4639, "Sector": 2503.0, "Empresas": "Agricolas", "NUEVO__COD": 236276, "CODIGO_CVC": "28026", "Caudal": 70}, "geometry": {"type": "Point", "coordinates": [-76.2641521, 3.350863]}}, {"type": "Feature", "properties": {"OBJECTID_1": 11, "OBJECTID": 11, "CODIGO": "Nuevo Castilla", "CODIGO2": "Nuevo", "ESTE": 1088657.9013, "NORTE": 864872.213, "Sector": 2506.0, "Empresas": "Agricolas", "NUEVO__COD": 2362003, "CODIGO_CVC": "Nuevo", "Caudal": 0}, "geometry": {"type": "Point", "coordinates": [-76.2799146, 3.3739601]}}, {"type": "Feature", "properties": {"OBJECTID_1": 12, "OBJECTID": 12, "CODIGO": "8171", "CODIGO2": "28171", "ESTE": 1090131.5958, "NORTE": 864242.9228, "Sector": 2503.0, "Empresas": "Agricolas", "NUEVO__COD": 236270, "CODIGO_CVC": "28171", "Caudal": 60}, "geometry": {"type": "Point", "coordinates": [-76.2665023, 3.3684876]}}, {"type": "Feature", "properties": {"OBJECTID_1": 13, "OBJECTID": 13, "CODIGO": "8011", "CODIGO2": "28011", "ESTE": 1089815.0701, "NORTE": 863325.3401, "Sector": 2503.0, "Empresas": "Agricolas", "NUEVO__COD": 236273, "CODIGO_CVC": "28011", "Caudal": 60}, "geometry": {"type": "Point", "coordinates": [-76.2695148, 3.3599634]}}, {"type": "Feature", "properties": {"OBJECTID_1": 14, "OBJECTID": 14, "CODIGO": "8033", "CODIGO2": "28033", "ESTE": 1089234.2165, "NORTE": 866925.5448, "Sector": 0.0, "Empresas": "riocas", "NUEVO__COD": 0, "CODIGO_CVC": "28033", "Caudal": 0}, "geometry": {"type": "Point", "coordinates": [-76.27457, 3.3925227]}}, {"type": "Feature", "properties": {"OBJECTID_1": 15, "OBJECTID": 15, "CODIGO": "8163", "CODIGO2": "28163", "ESTE": 1086614.7519, "NORTE": 869976.4258, "Sector": 2101.0, "Empresas": "Agricolas", "NUEVO__COD": 236210, "CODIGO_CVC": "28163", "Caudal": 0}, "geometry": {"type": "Point", "coordinates": [-76.2979659, 3.4201691]}}, {"type": "Feature", "properties": {"OBJECTID_1": 16, "OBJECTID": 16, "CODIGO": "8005", "CODIGO2": "28005", "ESTE": 1090325.014, "NORTE": 871911.315, "Sector": 0.0, "Empresas": "Agricolas", "NUEVO__COD": 236213, "CODIGO_CVC": "28005", "Caudal": 0}, "geometry": {"type": "Point", "coordinates": [-76.2648579, 3.4375978]}}, {"type": "Feature", "properties": {"OBJECTID_1": 17, "OBJECTID": 17, "CODIGO": "8162", "CODIGO2": "28162", "ESTE": 1091906.7322, "NORTE": 870245.6451, "Sector": 2138.0, "Empresas": "Agricolas", "NUEVO__COD": 236222, "CODIGO_CVC": "28162", "Caudal": 0}, "geometry": {"type": "Point", "coordinates": [-76.2506387, 3.4225231]}}, {"type": "Feature", "properties": {"OBJECTID_1": 18, "OBJECTID": 18, "CODIGO": "8003", "CODIGO2": "28003", "ESTE": 1089552.4427, "NORTE": 865930.9097, "Sector": 2104.0, "Empresas": "Agricolas", "NUEVO__COD": 236255, "CODIGO_CVC": "28003", "Caudal": 0}, "geometry": {"type": "Point", "coordinates": [-76.2718573, 3.3835263]}}, {"type": "Feature", "properties": {"OBJECTID_1": 20, "OBJECTID": 20, "CODIGO": "8027", "CODIGO2": "28027", "ESTE": 1074156.8087, "NORTE": 852626.2073, "Sector": 2124.0, "Empresas": "Agricolas", "NUEVO__COD": 236243, "CODIGO_CVC": "28027", "Caudal": 80}, "geometry": {"type": "Point", "coordinates": [-76.4104738, 3.263327]}}, {"type": "Feature", "properties": {"OBJECTID_1": 21, "OBJECTID": 21, "CODIGO": "8031", "CODIGO2": "28031", "ESTE": 1074049.965, "NORTE": 851452.762, "Sector": 2125.0, "Empresas": "Agricolas", "NUEVO__COD": 236246, "CODIGO_CVC": "28031", "Caudal": 75}, "geometry": {"type": "Point", "coordinates": [-76.4114426, 3.2527164]}}, {"type": "Feature", "properties": {"OBJECTID_1": 22, "OBJECTID": 22, "CODIGO": "8141", "CODIGO2": "28141", "ESTE": 1088398.4313, "NORTE": 856576.6655, "Sector": 0.0, "Empresas": "Agricolas", "NUEVO__COD": 236267, "CODIGO_CVC": "28141", "Caudal": 0}, "geometry": {"type": "Point", "coordinates": [-76.2823131, 3.2989494]}}, {"type": "Feature", "properties": {"OBJECTID_1": 23, "OBJECTID": 23, "CODIGO": "8164", "CODIGO2": "28164", "ESTE": 1087043.4876, "NORTE": 866525.9651, "Sector": 2105.0, "Empresas": "Agricolas", "NUEVO__COD": 236216, "CODIGO_CVC": "28164", "Caudal": 0}, "geometry": {"type": "Point", "coordinates": [-76.294428, 3.3889268]}}, {"type": "Feature", "properties": {"OBJECTID_1": 24, "OBJECTID": 24, "CODIGO": "8165", "CODIGO2": "28165", "ESTE": 1087228.704, "NORTE": 864901.587, "Sector": 2506.0, "Empresas": "Agricolas", "NUEVO__COD": 236258, "CODIGO_CVC": "28165", "Caudal": 0}, "geometry": {"type": "Point", "coordinates": [-76.2927144, 3.3745141]}}, {"type": "Feature", "properties": {"OBJECTID_1": 26, "OBJECTID": 27, "CODIGO": "8158", "CODIGO2": "CcMi-66", "ESTE": 1086284.0141, "NORTE": 851808.2505, "Sector": 0.0, "Empresas": "Agricolas", "NUEVO__COD": 0, "CODIGO_CVC": "CcMi-66", "Caudal": 0}, "geometry": {"type": "Point", "coordinates": [-76.3013721, 3.2558467]}}, {"type": "Feature", "properties": {"OBJECTID_1": 27, "OBJECTID": 28, "CODIGO": "8168", "CODIGO2": "VCN-540", "ESTE": 1078751.5735, "NORTE": 863359.2386, "Sector": 0.0, "Empresas": "Agricolas", "NUEVO__COD": 236228, "CODIGO_CVC": "VCN-540", "Caudal": 0}, "geometry": {"type": "Point", "coordinates": [-76.3690611, 3.3603523]}}, {"type": "Feature", "properties": {"OBJECTID_1": 28, "OBJECTID": 29, "CODIGO": "Vf-71", "CODIGO2": "VF-71", "ESTE": 1089622.5822, "NORTE": 854599.4862, "Sector": 0.0, "Empresas": "Agricolas", "NUEVO__COD": 0, "CODIGO_CVC": "VF-71", "Caudal": 0}, "geometry": {"type": "Point", "coordinates": [-76.2713165, 3.2802885]}}, {"type": "Feature", "properties": {"OBJECTID_1": 29, "OBJECTID": 30, "CODIGO": "8170", "CODIGO2": "CcMi-84", "ESTE": 1085324.6468, "NORTE": 851479.669, "Sector": 0.0, "Empresas": "Agricolas", "NUEVO__COD": 0, "CODIGO_CVC": "CcMi-84", "Caudal": 0}, "geometry": {"type": "Point", "coordinates": [-76.3100057, 3.2528825]}}, {"type": "Feature", "properties": {"OBJECTID_1": 30, "OBJECTID": 31, "CODIGO": "8171", "CODIGO2": "8171", "ESTE": 1086013.5515, "NORTE": 857601.5237, "Sector": 2112.0, "Empresas": "Agricolas", "NUEVO__COD": 236267, "CODIGO_CVC": "8171", "Caudal": 0}, "geometry": {"type": "Point", "coordinates": [-76.3035639, 3.3082344]}}, {"type": "Feature", "properties": {"OBJECTID_1": 31, "OBJECTID": 32, "CODIGO": "8174", "CODIGO2": "8174", "ESTE": 1086125.3735, "NORTE": 865010.912, "Sector": 2105.0, "Empresas": "Agricolas", "NUEVO__COD": 236219, "CODIGO_CVC": "8174", "Caudal": 0}, "geometry": {"type": "Point", "coordinates": [-76.3027007, 3.3752339]}}, {"type": "Feature", "properties": {"OBJECTID_1": 32, "OBJECTID": 33, "CODIGO": "8551", "CODIGO2": "CcMi-150", "ESTE": 1082291.1504, "NORTE": 840589.3556, "Sector": 2119.0, "Empresas": "Agricolas", "NUEVO__COD": 236301, "CODIGO_CVC": "CcMi-150", "Caudal": 0}, "geometry": {"type": "Point", "coordinates": [-76.3373729, 3.1544268]}}, {"type": "Feature", "properties": {"OBJECTID_1": 34, "OBJECTID": 35, "CODIGO": "Nuevo Ceurnavaca", "CODIGO2": "Nuevo", "ESTE": 1082227.7333, "NORTE": 843416.283, "Sector": 2143.0, "Empresas": "Agricolas", "NUEVO__COD": 236234, "CODIGO_CVC": "N.D", "Caudal": 80}, "geometry": {"type": "Point", "coordinates": [-76.337924, 3.1799902]}}, {"type": "Feature", "properties": {"OBJECTID_1": 35, "OBJECTID": 36, "CODIGO": "Nuevo Taula", "CODIGO2": "N.D", "ESTE": 1079803.5929, "NORTE": 842904.276, "Sector": 2141.0, "Empresas": "Agricolas", "NUEVO__COD": 236325, "CODIGO_CVC": "N.D", "Caudal": 70}, "geometry": {"type": "Point", "coordinates": [-76.3597355, 3.1753768]}}, {"type": "Feature", "properties": {"OBJECTID_1": 37, "OBJECTID": 38, "CODIGO": "Nuevo Serafina", "CODIGO2": "", "ESTE": 1071727.1578, "NORTE": 850641.6356, "Sector": 2127.0, "Empresas": "Agricolas", "NUEVO__COD": 236202, "CODIGO_CVC": "", "Caudal": 80}, "geometry": {"type": "Point", "coordinates": [-76.4322412, 3.245243]}}, {"type": "Feature", "properties": {"OBJECTID_1": 38, "OBJECTID": 40, "CODIGO": "Aljibe", "CODIGO2": "Aljibe", "ESTE": 1078410.6208, "NORTE": 851020.8399, "Sector": 0.0, "Empresas": "Agricolas", "NUEVO__COD": 0, "CODIGO_CVC": "Aljibe", "Caudal": 0}, "geometry": {"type": "Point", "coordinates": [-76.372213, 3.248782]}}, {"type": "Feature", "properties": {"OBJECTID_1": 39, "OBJECTID": 41, "CODIGO": "Pozo Nuevo", "CODIGO2": "Pozo Nuevo", "ESTE": 1089759.9269, "NORTE": 868158.9947, "Sector": 2104.0, "Empresas": "Agricolas", "NUEVO__COD": 236206, "CODIGO_CVC": "Pozo Nuevo", "Caudal": 0}, "geometry": {"type": "Point", "coordinates": [-76.2698844, 3.4036956]}}, {"type": "Feature", "properties": {"OBJECTID_1": 40, "OBJECTID": 42, "CODIGO": "8002", "CODIGO2": "28002", "ESTE": 0.0, "NORTE": 0.0, "Sector": 2104.0, "Empresas": "Agricolas", "NUEVO__COD": 236207, "CODIGO_CVC": "28002", "Caudal": 0}, "geometry": {"type": "Point", "coordinates": [-76.2617476, 3.3965419]}}, {"type": "Feature", "properties": {"OBJECTID_1": 42, "OBJECTID": 44, "CODIGO": "8005", "CODIGO2": "8005", "ESTE": 1090325.014, "NORTE": 871911.315, "Sector": 2102.0, "Empresas": "Agricolas", "NUEVO__COD": 236294, "CODIGO_CVC": "8005", "Caudal": 90}, "geometry": {"type": "Point", "coordinates": [-76.2664365, 3.4373696]}}, {"type": "Feature", "properties": {"OBJECTID_1": 43, "OBJECTID": 45, "CODIGO": "8166", "CODIGO2": "28166", "ESTE": 0.0, "NORTE": 0.0, "Sector": 2506.0, "Empresas": "Agricolas", "NUEVO__COD": 236261, "CODIGO_CVC": "28166", "Caudal": 0}, "geometry": {"type": "Point", "coordinates": [-76.2720318, 3.3764114]}}, {"type": "Feature", "properties": {"OBJECTID_1": 44, "OBJECTID": 46, "CODIGO": "", "CODIGO2": "", "ESTE": 0.0, "NORTE": 0.0, "Sector": 4305.0, "Empresas": "Agricolas", "NUEVO__COD": 236595, "CODIGO_CVC": "N.D", "Caudal": 0}, "geometry": {"type": "Point", "coordinates": [-76.2913637, 3.1535037]}}]}