{"type": "FeatureCollection", "name": "DRENAJES", "crs": {"type": "name", "properties": {"name": "urn:ogc:def:crs:OGC:1.3:CRS84"}}, "features": [{"type": "Feature", "properties": {"OBJECTID": 5, "Nombre": "DRENAJE", "Shape_Leng": 588.055539484, "sector": 0, "Empresa": "riocas", "distancias": 588.055539484}, "geometry": {"type": "LineString", "coordinates": [[-76.2752508, 3.3928534], [-76.2780757, 3.3934848], [-76.2780223, 3.3927042], [-76.2795979, 3.3930779]]}}, {"type": "Feature", "properties": {"OBJECTID": 9, "Nombre": "RIEGO", "Shape_Leng": 1174.52161318, "sector": 106, "Empresa": "riocas", "distancias": 1174.52161318}, "geometry": {"type": "LineString", "coordinates": [[-76.2826765, 3.3706637], [-76.292571, 3.3743951]]}}, {"type": "Feature", "properties": {"OBJECTID": 10, "Nombre": "RIEGO", "Shape_Leng": 3204.25653374, "sector": 106, "Empresa": "Agricola", "distancias": 3204.25653374}, "geometry": {"type": "LineString", "coordinates": [[-76.2901125, 3.3709446], [-76.2964433, 3.3733759], [-76.3099525, 3.3785045], [-76.3170731, 3.3812117]]}}, {"type": "Feature", "properties": {"OBJECTID": 122, "Nombre": "DRENAJE", "Shape_Leng": 1026.09494252, "sector": 0, "Empresa": "Agricola", "distancias": 1026.09494252}, "geometry": {"type": "LineString", "coordinates": [[-76.294539, 3.3926894], [-76.3031745, 3.3959726]]}}, {"type": "Feature", "properties": {"OBJECTID": 123, "Nombre": "DRENAJE", "Shape_Leng": 1373.94278993, "sector": 0, "Empresa": "Agricola", "distancias": 1373.94278993}, "geometry": {"type": "LineString", "coordinates": [[-76.2960241, 3.3774456], [-76.3075991, 3.3818093]]}}, {"type": "Feature", "properties": {"OBJECTID": 124, "Nombre": "DRENAJE", "Shape_Leng": 546.685252027, "sector": 0, "Empresa": "Agricola", "distancias": 546.685252027}, "geometry": {"type": "LineString", "coordinates": [[-76.2954609, 3.383348], [-76.300066, 3.3850856]]}}, {"type": "Feature", "properties": {"OBJECTID": 125, "Nombre": "DRENAJE", "Shape_Leng": 1722.31211907, "sector": 106, "Empresa": "Agricola", "distancias": 1722.31211907}, "geometry": {"type": "LineString", "coordinates": [[-76.281501, 3.3720114], [-76.2960241, 3.3774456]]}}, {"type": "Feature", "properties": {"OBJECTID": 314, "Nombre": "DRENAJE", "Shape_Leng": 2346.32982827, "sector": 0, "Empresa": "Agricola", "distancias": 2346.32982827}, "geometry": {"type": "LineString", "coordinates": [[-76.2752284, 3.3797682], [-76.2949884, 3.3872388]]}}, {"type": "Feature", "properties": {"OBJECTID": 315, "Nombre": "DRENAJE", "Shape_Leng": 1107.83150832, "sector": 0, "Empresa": "Agricola", "distancias": 1107.83150832}, "geometry": {"type": "LineString", "coordinates": [[-76.2772688, 3.3765021], [-76.2866058, 3.3800101]]}}, {"type": "Feature", "properties": {"OBJECTID": 323, "Nombre": "DRENAJE", "Shape_Leng": 544.13722183, "sector": 0, "Empresa": "Agricola", "distancias": 544.13722183}, "geometry": {"type": "LineString", "coordinates": [[-76.2810006, 3.3892417], [-76.2855788, 3.3909859]]}}, {"type": "Feature", "properties": {"OBJECTID": 324, "Nombre": "DRENAJE", "Shape_Leng": 508.684497457, "sector": 0, "Empresa": "Agricola", "distancias": 508.684497457}, "geometry": {"type": "LineString", "coordinates": [[-76.2793098, 3.3862515], [-76.2836179, 3.3878051]]}}, {"type": "Feature", "properties": {"OBJECTID": 335, "Nombre": "DRENAJE", "Shape_Leng": 408.195787666, "sector": 0, "Empresa": "riocas", "distancias": 408.195787666}, "geometry": {"type": "LineString", "coordinates": [[-76.2800704, 3.3649863], [-76.2821248, 3.3657856], [-76.2834968, 3.3663156]]}}, {"type": "Feature", "properties": {"OBJECTID": 368, "Nombre": "RIEGO", "Shape_Leng": 567.822281938, "sector": 106, "Empresa": "riocas", "distancias": 567.822281938}, "geometry": {"type": "LineString", "coordinates": [[-76.2945652, 3.3726371], [-76.293942, 3.3682736], [-76.2941162, 3.3675687]]}}, {"type": "Feature", "properties": {"OBJECTID": 369, "Nombre": "RIEGO", "Shape_Leng": 501.686190012, "sector": 106, "Empresa": "riocas", "distancias": 501.686190012}, "geometry": {"type": "LineString", "coordinates": [[-76.2936456, 3.3675592], [-76.2929811, 3.3720462]]}}, {"type": "Feature", "properties": {"OBJECTID": 370, "Nombre": "RIEGO", "Shape_Leng": 399.111156134, "sector": 106, "Empresa": "riocas", "distancias": 399.111156134}, "geometry": {"type": "LineString", "coordinates": [[-76.2904326, 3.3673503], [-76.2902131, 3.3695596], [-76.2901125, 3.3709446]]}}, {"type": "Feature", "properties": {"OBJECTID": 377, "Nombre": "DRENAJE", "Shape_Leng": 957.072270047, "sector": 0, "Empresa": "Agricola", "distancias": 957.072270047}, "geometry": {"type": "LineString", "coordinates": [[-76.2950872, 3.3873392], [-76.29739, 3.3882363], [-76.2996937, 3.389134], [-76.3031595, 3.3903505]]}}, {"type": "Feature", "properties": {"OBJECTID": 378, "Nombre": "DRENAJE", "Shape_Leng": 333.641513572, "sector": 0, "Empresa": "Agricola", "distancias": 333.641513572}, "geometry": {"type": "LineString", "coordinates": [[-76.3001266, 3.3841639], [-76.3029656, 3.3851449]]}}, {"type": "Feature", "properties": {"OBJECTID": 379, "Nombre": "DRENAJE", "Shape_Leng": 895.686937825, "sector": 0, "Empresa": "Agricola", "distancias": 895.686937825}, "geometry": {"type": "LineString", "coordinates": [[-76.2998809, 3.3871295], [-76.302996, 3.3882608], [-76.3030193, 3.3834903]]}}, {"type": "Feature", "properties": {"OBJECTID": 380, "Nombre": "DRENAJE", "Shape_Leng": 341.598523719, "sector": 0, "Empresa": "Agricola", "distancias": 341.598523719}, "geometry": {"type": "LineString", "coordinates": [[-76.300066, 3.3850856], [-76.3029626, 3.386119]]}}, {"type": "Feature", "properties": {"OBJECTID": 392, "Nombre": "RIEGO", "Shape_Leng": 142.56816801, "sector": 0, "Empresa": "Agricola", "distancias": 142.56816801}, "geometry": {"type": "LineString", "coordinates": [[-76.2714252, 3.3829507], [-76.2706627, 3.3839874]]}}, {"type": "Feature", "properties": {"OBJECTID": 393, "Nombre": "RIEGO", "Shape_Leng": 1846.75326274, "sector": 106, "Empresa": "Agricola", "distancias": 1846.75326274}, "geometry": {"type": "LineString", "coordinates": [[-76.2714252, 3.3829507], [-76.2771482, 3.3766353], [-76.2786229, 3.3750372], [-76.2814084, 3.3721089], [-76.2826765, 3.3706637]]}}, {"type": "Feature", "properties": {"OBJECTID": 406, "Nombre": "RIEGO", "Shape_Leng": 388.386429966, "sector": 0, "Empresa": "riocas", "distancias": 388.386429966}, "geometry": {"type": "LineString", "coordinates": [[-76.2795326, 3.3667167], [-76.2794618, 3.3669697], [-76.2809818, 3.3675595], [-76.2824874, 3.3681146]]}}, {"type": "Feature", "properties": {"OBJECTID": 407, "Nombre": "RIEGO", "Shape_Leng": 444.993861918, "sector": 0, "Empresa": "riocas", "distancias": 444.993861918}, "geometry": {"type": "LineString", "coordinates": [[-76.2796294, 3.3670275], [-76.2804395, 3.3630868]]}}, {"type": "Feature", "properties": {"OBJECTID": 418, "Nombre": "RIEGO", "Shape_Leng": 313.196597507, "sector": 0, "Empresa": "Agricola", "distancias": 313.196597507}, "geometry": {"type": "LineString", "coordinates": [[-76.3005536, 3.3800982], [-76.3031998, 3.3810724]]}}, {"type": "Feature", "properties": {"OBJECTID": 419, "Nombre": "DRENAJE", "Shape_Leng": 313.196597508, "sector": 0, "Empresa": "Agricola", "distancias": 313.196597508}, "geometry": {"type": "LineString", "coordinates": [[-76.3008598, 3.3769942], [-76.3035059, 3.3779683]]}}, {"type": "Feature", "properties": {"OBJECTID": 473, "Nombre": "DRENAJE", "Shape_Leng": 246.785234158, "sector": 0, "Empresa": "Agricola", "distancias": 246.785234158}, "geometry": {"type": "LineString", "coordinates": [[-76.2734866, 3.3770921], [-76.2755786, 3.3778404]]}}, {"type": "Feature", "properties": {"OBJECTID": 474, "Nombre": "RIEGO", "Shape_Leng": 430.874528043, "sector": 0, "Empresa": "Agricola", "distancias": 430.874528043}, "geometry": {"type": "LineString", "coordinates": [[-76.2712752, 3.376313], [-76.2705139, 3.3801333]]}}, {"type": "Feature", "properties": {"OBJECTID": 475, "Nombre": "DRENAJE", "Shape_Leng": 323.815148762, "sector": 0, "Empresa": "Agricola", "distancias": 323.815148762}, "geometry": {"type": "LineString", "coordinates": [[-76.2734893, 3.3801794], [-76.2707938, 3.3791755], [-76.2707857, 3.3792137]]}}, {"type": "Feature", "properties": {"OBJECTID": 479, "Nombre": "RIEGO", "Shape_Leng": 977.497101959, "sector": 0, "Empresa": "Agricola", "distancias": 977.497101959}, "geometry": {"type": "LineString", "coordinates": [[-76.2941046, 3.3958793], [-76.2914729, 3.3948673], [-76.2907031, 3.38891]]}}, {"type": "Feature", "properties": {"OBJECTID": 482, "Nombre": "DRENAJE", "Shape_Leng": 238.060938384, "sector": 0, "Empresa": "Agricola", "distancias": 238.060938384}, "geometry": {"type": "LineString", "coordinates": [[-76.2856286, 3.3923372], [-76.2855948, 3.3901848]]}}, {"type": "Feature", "properties": {"OBJECTID": 539, "Nombre": "RIEGO", "Shape_Leng": 724.882300327, "sector": 0, "Empresa": "Agricola", "distancias": 724.882300327}, "geometry": {"type": "LineString", "coordinates": [[-76.2702268, 3.3930347], [-76.2716236, 3.3894359], [-76.2741404, 3.390357]]}}, {"type": "Feature", "properties": {"OBJECTID": 556, "Nombre": "DRENAJE", "Shape_Leng": 570.861853868, "sector": 0, "Empresa": "riocas", "distancias": 570.861853868}, "geometry": {"type": "LineString", "coordinates": [[-76.2785895, 3.3610119], [-76.2775502, 3.3660672]]}}, {"type": "Feature", "properties": {"OBJECTID": 558, "Nombre": "RIEGO", "Shape_Leng": 467.579669309, "sector": 0, "Empresa": "Agricola", "distancias": 467.579669309}, "geometry": {"type": "LineString", "coordinates": [[-76.275527, 3.3654731], [-76.2756495, 3.3655202], [-76.2794618, 3.3669697]]}}, {"type": "Feature", "properties": {"OBJECTID": 564, "Nombre": "RIEGO", "Shape_Leng": 153.800922873, "sector": 0, "Empresa": "Agricola", "distancias": 153.800922873}, "geometry": {"type": "LineString", "coordinates": [[-76.2707265, 3.3917779], [-76.2720233, 3.3922634]]}}, {"type": "Feature", "properties": {"OBJECTID": 565, "Nombre": "RIEGO", "Shape_Leng": 298.124632016, "sector": 0, "Empresa": "Agricola", "distancias": 298.124632016}, "geometry": {"type": "LineString", "coordinates": [[-76.2712364, 3.3905058], [-76.2737451, 3.3914605]]}}, {"type": "Feature", "properties": {"OBJECTID": 572, "Nombre": "RIEGO", "Shape_Leng": 500.950035623, "sector": 106, "Empresa": "riocas", "distancias": 500.950035623}, "geometry": {"type": "LineString", "coordinates": [[-76.290207, 3.3697083], [-76.2910894, 3.3687354], [-76.2923581, 3.3673582], [-76.2936825, 3.367481]]}}, {"type": "Feature", "properties": {"OBJECTID": 573, "Nombre": "RIEGO", "Shape_Leng": 437.522495863, "sector": 106, "Empresa": "riocas", "distancias": 437.522495863}, "geometry": {"type": "LineString", "coordinates": [[-76.2934878, 3.3680983], [-76.2928788, 3.372007]]}}, {"type": "Feature", "properties": {"OBJECTID": 574, "Nombre": "RIEGO", "Shape_Leng": 335.512526243, "sector": 106, "Empresa": "riocas", "distancias": 335.512526243}, "geometry": {"type": "LineString", "coordinates": [[-76.2941162, 3.3675687], [-76.2943998, 3.3649043], [-76.2947257, 3.3647691]]}}, {"type": "Feature", "properties": {"OBJECTID": 578, "Nombre": "DRENAJE", "Shape_Leng": 406.447202195, "sector": 0, "Empresa": "Agricola", "distancias": 406.447202195}, "geometry": {"type": "LineString", "coordinates": [[-76.291757, 3.3840137], [-76.2951816, 3.3853035]]}}, {"type": "Feature", "properties": {"OBJECTID": 579, "Nombre": "RIEGO", "Shape_Leng": 404.048899804, "sector": 0, "Empresa": "Agricola", "distancias": 404.048899804}, "geometry": {"type": "LineString", "coordinates": [[-76.2913875, 3.3879402], [-76.2947923, 3.3892212]]}}, {"type": "Feature", "properties": {"OBJECTID": 584, "Nombre": "RIEGO", "Shape_Leng": 698.882716771, "sector": 0, "Empresa": "provee", "distancias": 698.882716771}, "geometry": {"type": "LineString", "coordinates": [[-76.2855618, 3.3932348], [-76.2793958, 3.3919937]]}}, {"type": "Feature", "properties": {"OBJECTID": 588, "Nombre": "DRENAJE", "Shape_Leng": 685.786305797, "sector": 0, "Empresa": "provee", "distancias": 685.786305797}, "geometry": {"type": "LineString", "coordinates": [[-76.27967, 3.3930951], [-76.2857446, 3.3941851]]}}, {"type": "Feature", "properties": {"OBJECTID": 592, "Nombre": "RIEGO", "Shape_Leng": 868.692798555, "sector": 0, "Empresa": "riocas", "distancias": 868.692798555}, "geometry": {"type": "LineString", "coordinates": [[-76.2766327, 3.3994966], [-76.2760123, 3.3967153], [-76.27495, 3.3962792], [-76.2747218, 3.3939088], [-76.274506, 3.3924548]]}}, {"type": "Feature", "properties": {"OBJECTID": 593, "Nombre": "RIEGO", "Shape_Leng": 340.923225223, "sector": 0, "Empresa": "riocas", "distancias": 340.923225223}, "geometry": {"type": "LineString", "coordinates": [[-76.274506, 3.3924548], [-76.2742304, 3.3905269], [-76.2753589, 3.3905747]]}}, {"type": "Feature", "properties": {"OBJECTID": 596, "Nombre": "RIEGO", "Shape_Leng": 581.389681818, "sector": 0, "Empresa": "riocas", "distancias": 581.389681818}, "geometry": {"type": "LineString", "coordinates": [[-76.2753589, 3.3905747], [-76.2791675, 3.3905824], [-76.2793958, 3.3919937]]}}, {"type": "Feature", "properties": {"OBJECTID": 598, "Nombre": "DRENAJE", "Shape_Leng": 824.199087247, "sector": 106, "Empresa": "Agricola", "distancias": 824.199087247}, "geometry": {"type": "LineString", "coordinates": [[-76.2987947, 3.3742686], [-76.3037354, 3.3687106]]}}, {"type": "Feature", "properties": {"OBJECTID": 615, "Nombre": "RIEGO", "Shape_Leng": 2261.72287149, "sector": 0, "Empresa": "Agricola", "distancias": 2261.72287149}, "geometry": {"type": "LineString", "coordinates": [[-76.2731619, 3.3810343], [-76.2770577, 3.3825438], [-76.2831549, 3.3848639], [-76.2859042, 3.3858999], [-76.2860672, 3.3860416], [-76.2859405, 3.3870383], [-76.285969, 3.3871752], [-76.2865131, 3.3872942], [-76.286904, 3.3871594], [-76.2878593, 3.3873893], [-76.2884581, 3.3882348], [-76.2889818, 3.3884307], [-76.2894595, 3.3886094], [-76.2902647, 3.3887916], [-76.2904976, 3.3887642], [-76.2907031, 3.38891]]}}, {"type": "Feature", "properties": {"OBJECTID": 616, "Nombre": "DRENAJE", "Shape_Leng": 1881.16813393, "sector": 0, "Empresa": "Agricola", "distancias": 1881.16813393}, "geometry": {"type": "LineString", "coordinates": [[-76.2759169, 3.3780384], [-76.2917522, 3.3840472]]}}, {"type": "Feature", "properties": {"OBJECTID": 639, "Nombre": "DRENAJE", "Shape_Leng": 155.10818936, "sector": 106, "Empresa": "riocas", "distancias": 155.10818936}, "geometry": {"type": "LineString", "coordinates": [[-76.2904325, 3.3674179], [-76.291741, 3.3679058]]}}, {"type": "Feature", "properties": {"OBJECTID": 669, "Nombre": "RIEGO", "Shape_Leng": 33.4071918363, "sector": 106, "Empresa": "riocas", "distancias": 33.4071918363}, "geometry": {"type": "LineString", "coordinates": [[-76.2938356, 3.3674976], [-76.2940705, 3.3675023], [-76.2941269, 3.3674685]]}}, {"type": "Feature", "properties": {"OBJECTID": 670, "Nombre": "RIEGO", "Shape_Leng": 32.4018061735, "sector": 106, "Empresa": "riocas", "distancias": 32.4018061735}, "geometry": {"type": "LineString", "coordinates": [[-76.2936713, 3.3681648], [-76.293942, 3.3682736]]}}, {"type": "Feature", "properties": {"OBJECTID": 691, "Nombre": "DRENAJE", "Shape_Leng": 272.524080628, "sector": 0, "Empresa": "Agricola", "distancias": 272.524080628}, "geometry": {"type": "LineString", "coordinates": [[-76.2998809, 3.3871295], [-76.297576, 3.3862884]]}}, {"type": "Feature", "properties": {"OBJECTID": 692, "Nombre": "RIEGO", "Shape_Leng": 1111.57724594, "sector": 0, "Empresa": "Agricola", "distancias": 1111.57724594}, "geometry": {"type": "LineString", "coordinates": [[-76.2948996, 3.3894529], [-76.2995093, 3.3912857], [-76.3042237, 3.3930896]]}}, {"type": "Feature", "properties": {"OBJECTID": 693, "Nombre": "RIEGO", "Shape_Leng": 243.471071502, "sector": 0, "Empresa": "Agricola", "distancias": 243.471071502}, "geometry": {"type": "LineString", "coordinates": [[-76.2716236, 3.3894359], [-76.2723855, 3.3873717]]}}, {"type": "Feature", "properties": {"OBJECTID": 717, "Nombre": "DRENAJE", "Shape_Leng": 1051.08390468, "sector": 0, "Empresa": "", "distancias": 0.0}, "geometry": {"type": "LineString", "coordinates": [[-76.2866058, 3.3800101], [-76.2954609, 3.383348]]}}, {"type": "Feature", "properties": {"OBJECTID": 718, "Nombre": "DRENAJE", "Shape_Leng": 2011.83623231, "sector": 0, "Empresa": "", "distancias": 0.0}, "geometry": {"type": "LineString", "coordinates": [[-76.2786229, 3.3750372], [-76.278786, 3.3750939], [-76.2836266, 3.3768789], [-76.2955774, 3.3814113]]}}, {"type": "Feature", "properties": {"OBJECTID": 719, "Nombre": "RIEGO", "Shape_Leng": 1681.28082844, "sector": 0, "Empresa": "", "distancias": 0.0}, "geometry": {"type": "LineString", "coordinates": [[-76.2826765, 3.3706637], [-76.2842508, 3.3689846], [-76.2962729, 3.3734941]]}}]}