{"type": "FeatureCollection", "name": "DRENAJES", "crs": {"type": "name", "properties": {"name": "urn:ogc:def:crs:OGC:1.3:CRS84"}}, "features": [{"type": "Feature", "properties": {"RIEGO_DREN": "Drenaje"}, "geometry": {"type": "LineString", "coordinates": [[-76.1493045, 4.3605157], [-76.1444924, 4.3646365], [-76.1443023, 4.3655333], [-76.1427964, 4.3652028], [-76.1417963, 4.3696738], [-76.1304587, 4.3673401], [-76.1295401, 4.3713649]]}}, {"type": "Feature", "properties": {"RIEGO_DREN": "Drenaje"}, "geometry": {"type": "LineString", "coordinates": [[-76.1336835, 4.3680039], [-76.1349738, 4.3625698]]}}, {"type": "Feature", "properties": {"RIEGO_DREN": "Drenaje"}, "geometry": {"type": "LineString", "coordinates": [[-76.1304587, 4.3673401], [-76.1303529, 4.3673447], [-76.1301248, 4.3672922], [-76.1308122, 4.3645008], [-76.1308315, 4.3616355], [-76.1308331, 4.3614868], [-76.1320541, 4.3589217], [-76.1321504, 4.3589072], [-76.1328405, 4.357552], [-76.1330735, 4.3567208], [-76.1331392, 4.3562575], [-76.1331812, 4.3559614], [-76.1335226, 4.3545257], [-76.133736, 4.3536907], [-76.1338372, 4.3529246], [-76.13395, 4.3529402], [-76.1340066, 4.3525364], [-76.1340229, 4.3522391]]}}, {"type": "Feature", "properties": {"RIEGO_DREN": "Drenaje"}, "geometry": {"type": "LineString", "coordinates": [[-76.1340511, 4.3521798], [-76.1346185, 4.3513706], [-76.1346614, 4.3511968], [-76.1347234, 4.350859], [-76.1347499, 4.3505149], [-76.1348668, 4.3500844], [-76.1352578, 4.3484684], [-76.1354027, 4.3474775], [-76.13544, 4.3471568], [-76.1353775, 4.347073], [-76.1348589, 4.3465417], [-76.134742, 4.3464132], [-76.1346804, 4.346261], [-76.1346626, 4.3460189], [-76.1346533, 4.3457374], [-76.1346942, 4.3452399], [-76.1347309, 4.3448938], [-76.1347728, 4.3445982], [-76.1348122, 4.3444081], [-76.1348973, 4.3442038], [-76.1348524, 4.3441028], [-76.1345525, 4.3440319], [-76.1325996, 4.3436229], [-76.116125, 4.3402141]]}}, {"type": "Feature", "properties": {"RIEGO_DREN": "Drenaje"}, "geometry": {"type": "LineString", "coordinates": [[-76.1348524, 4.3441028], [-76.1351758, 4.3439579], [-76.135522, 4.3438027], [-76.1356397, 4.3436743], [-76.1357001, 4.3435187], [-76.1357117, 4.3434049], [-76.135712, 4.3432366], [-76.135706, 4.3430952], [-76.1357188, 4.3429709], [-76.1357453, 4.3427548], [-76.1366723, 4.3388149], [-76.1366783, 4.3387858], [-76.1378444, 4.3389798]]}}, {"type": "Feature", "properties": {"RIEGO_DREN": "Drenaje"}, "geometry": {"type": "LineString", "coordinates": [[-76.1366783, 4.3387858], [-76.1338976, 4.3382067]]}}, {"type": "Feature", "properties": {"RIEGO_DREN": "Drenaje"}, "geometry": {"type": "LineString", "coordinates": [[-76.1351741, 4.3468646], [-76.1371066, 4.3446571], [-76.1382506, 4.3456799], [-76.1384826, 4.3457639], [-76.139967, 4.3471154]]}}, {"type": "Feature", "properties": {"RIEGO_DREN": "Drenaje"}, "geometry": {"type": "LineString", "coordinates": [[-76.1466761, 4.3411279], [-76.1440411, 4.3363664], [-76.1438748, 4.3359443], [-76.1430978, 4.3326284]]}}, {"type": "Feature", "properties": {"RIEGO_DREN": "Drenaje"}, "geometry": {"type": "LineString", "coordinates": [[-76.1433512, 4.33371], [-76.1390937, 4.3346717]]}}, {"type": "Feature", "properties": {"RIEGO_DREN": "Drenaje"}, "geometry": {"type": "LineString", "coordinates": [[-76.143892, 4.3359881], [-76.1423282, 4.3375631]]}}, {"type": "Feature", "properties": {"RIEGO_DREN": "Drenaje"}, "geometry": {"type": "LineString", "coordinates": [[-76.1265402, 4.3451397], [-76.1353067, 4.3470017]]}}, {"type": "Feature", "properties": {"RIEGO_DREN": "Drenaje"}, "geometry": {"type": "LineString", "coordinates": [[-76.1338423, 4.3529256], [-76.114109, 4.348717]]}}, {"type": "Feature", "properties": {"RIEGO_DREN": "Drenaje"}, "geometry": {"type": "LineString", "coordinates": [[-76.1301104, 4.3672922], [-76.1113315, 4.3631291]]}}, {"type": "Feature", "properties": {"RIEGO_DREN": "Drenaje"}, "geometry": {"type": "LineString", "coordinates": [[-76.1295401, 4.3713649], [-76.129533, 4.3714101], [-76.1291426, 4.3712845], [-76.1285774, 4.3710846], [-76.1283464, 4.3709685], [-76.1281495, 4.3705906], [-76.1256497, 4.369719], [-76.1251275, 4.3695663], [-76.1239709, 4.3693117], [-76.1215279, 4.3689339], [-76.121398, 4.3689133], [-76.121212, 4.3688838]]}}, {"type": "Feature", "properties": {"RIEGO_DREN": "Drenaje"}, "geometry": {"type": "LineString", "coordinates": [[-76.1063081, 4.3566305], [-76.1285552, 4.3614553], [-76.1309566, 4.361991]]}}, {"type": "Feature", "properties": {"RIEGO_DREN": "Drenaje"}, "geometry": {"type": "LineString", "coordinates": [[-76.1063081, 4.3566305], [-76.1069409, 4.3536722], [-76.1039926, 4.352997], [-76.1039387, 4.3527978], [-76.1049366, 4.3481285], [-76.1051726, 4.3469159]]}}, {"type": "Feature", "properties": {"RIEGO_DREN": "Drenaje"}, "geometry": {"type": "LineString", "coordinates": [[-76.1066431, 4.3550645], [-76.1057753, 4.3548807], [-76.1053775, 4.3548005], [-76.1052415, 4.3547846], [-76.1051574, 4.3547747], [-76.1050843, 4.354786], [-76.1050289, 4.3548143], [-76.1049944, 4.3548517], [-76.1047777, 4.3558243], [-76.1047425, 4.3558926], [-76.1046946, 4.3559251], [-76.1046229, 4.3559319], [-76.1045228, 4.3559154], [-76.1043525, 4.3558735], [-76.1041236, 4.3558203], [-76.1039773, 4.3557864], [-76.1035961, 4.355689]]}}, {"type": "Feature", "properties": {"RIEGO_DREN": "Drenaje"}, "geometry": {"type": "LineString", "coordinates": [[-76.1403816, 4.3647152], [-76.1427964, 4.3652028]]}}, {"type": "Feature", "properties": {"RIEGO_DREN": "Drenaje"}, "geometry": {"type": "LineString", "coordinates": [[-76.1183404, 4.3558956], [-76.1321717, 4.3588655]]}}, {"type": "Feature", "properties": {"RIEGO_DREN": "Drenaje"}, "geometry": {"type": "LineString", "coordinates": [[-76.1070749, 4.3534862], [-76.1083442, 4.3474957]]}}, {"type": "Feature", "properties": {"RIEGO_DREN": "Drenaje"}, "geometry": {"type": "LineString", "coordinates": [[-76.143892, 4.3359881], [-76.1465963, 4.3336789]]}}, {"type": "Feature", "properties": {"RIEGO_DREN": "Drenaje"}, "geometry": {"type": "LineString", "coordinates": [[-76.1240638, 4.3275113], [-76.1210555, 4.3313999]]}}, {"type": "Feature", "properties": {"RIEGO_DREN": "Drenaje"}, "geometry": {"type": "LineString", "coordinates": [[-76.1233398, 4.3284472], [-76.1178206, 4.3242742], [-76.1185343, 4.3233244]]}}, {"type": "Feature", "properties": {"RIEGO_DREN": "Drenaje"}, "geometry": {"type": "LineString", "coordinates": [[-76.1178206, 4.3242742], [-76.1124033, 4.331582]]}}, {"type": "Feature", "properties": {"RIEGO_DREN": "Drenaje"}, "geometry": {"type": "LineString", "coordinates": [[-76.1069251, 4.3209264], [-76.1112686, 4.3241728]]}}, {"type": "Feature", "properties": {"RIEGO_DREN": "Drenaje"}, "geometry": {"type": "LineString", "coordinates": [[-76.1099131, 4.3166251], [-76.1019644, 4.3273014], [-76.1016912, 4.3273469], [-76.1007535, 4.3265345], [-76.0981577, 4.3244577], [-76.0951669, 4.3279432], [-76.0893486, 4.3229287], [-76.0887977, 4.3218444]]}}, {"type": "Feature", "properties": {"RIEGO_DREN": "Drenaje"}, "geometry": {"type": "LineString", "coordinates": [[-76.1029463, 4.3259826], [-76.0985714, 4.3222761], [-76.0968011, 4.3209511], [-76.0967745, 4.3209331], [-76.095729, 4.3221361], [-76.0920713, 4.3189506]]}}, {"type": "Feature", "properties": {"RIEGO_DREN": "Drenaje"}, "geometry": {"type": "LineString", "coordinates": [[-76.1016912, 4.3273469], [-76.1018738, 4.3276234], [-76.1033407, 4.3289556], [-76.1032772, 4.3303184], [-76.1031955, 4.3318869], [-76.1030666, 4.3346014]]}}, {"type": "Feature", "properties": {"RIEGO_DREN": "Drenaje"}, "geometry": {"type": "LineString", "coordinates": [[-76.0748718, 4.3224488], [-76.0835982, 4.3297897], [-76.0838047, 4.3296052], [-76.0838972, 4.3295552], [-76.0846857, 4.3294491], [-76.0868372, 4.3268832], [-76.0940101, 4.3330282]]}}, {"type": "Feature", "properties": {"RIEGO_DREN": "Drenaje"}, "geometry": {"type": "LineString", "coordinates": [[-76.1514505, 4.3047568], [-76.1513667, 4.3046998], [-76.1512421, 4.3045938], [-76.1511204, 4.3045003], [-76.1510421, 4.304419], [-76.1509819, 4.3043775], [-76.1509627, 4.3043506], [-76.1509319, 4.3042962], [-76.1509101, 4.3042285], [-76.1508943, 4.3041261], [-76.1508919, 4.3040249], [-76.1508908, 4.3038552], [-76.1508953, 4.3037143], [-76.1509, 4.3035612], [-76.1509, 4.3034478], [-76.1508952, 4.3034131], [-76.1509032, 4.3033078], [-76.1509179, 4.3031994], [-76.1509345, 4.3031228], [-76.1509577, 4.3030595], [-76.1510435, 4.3028651], [-76.1511075, 4.3026771], [-76.1511242, 4.3025599], [-76.151137, 4.3024476], [-76.1511474, 4.3023542], [-76.151151, 4.3022959], [-76.1511634, 4.3022726], [-76.1511863, 4.3021908], [-76.1512192, 4.3021218], [-76.1512759, 4.3020312], [-76.1513564, 4.3019506], [-76.1514338, 4.3018735], [-76.1514667, 4.301817], [-76.1514478, 4.3017608], [-76.1514281, 4.301682], [-76.1513896, 4.3015936], [-76.1512089, 4.3012393], [-76.1510055, 4.3007885], [-76.150852, 4.3003868], [-76.1507707, 4.300215], [-76.1507305, 4.3001686], [-76.1506841, 4.3001421], [-76.1506327, 4.3001338], [-76.1505796, 4.30014], [-76.1504735, 4.30018], [-76.1503107, 4.3002654], [-76.1501283, 4.3003716], [-76.1500264, 4.3004246], [-76.1496755, 4.3006195], [-76.1493455, 4.3008025], [-76.1492146, 4.300883], [-76.1490485, 4.3009632], [-76.1487951, 4.301114], [-76.1482913, 4.3014307], [-76.1482035, 4.3014984], [-76.1479669, 4.3016753], [-76.1476003, 4.3018982], [-76.1475442, 4.3019234], [-76.1475207, 4.3019116], [-76.1474786, 4.3019213], [-76.1474558, 4.3019449], [-76.147374, 4.3019469], [-76.1472646, 4.3019297], [-76.1471588, 4.3019043], [-76.1470446, 4.3018642], [-76.1469555, 4.30182], [-76.1468896, 4.301735], [-76.1467868, 4.3016597], [-76.1466698, 4.3015611], [-76.1465885, 4.3014635], [-76.1464497, 4.3012529], [-76.1463833, 4.301113], [-76.146366, 4.301023], [-76.1463738, 4.3009767], [-76.1464592, 4.3008653], [-76.146566, 4.3007406], [-76.1465866, 4.3006376], [-76.1465925, 4.3005747], [-76.146528, 4.3004733], [-76.1464139, 4.3003513], [-76.146314, 4.3002352], [-76.146258, 4.3001184], [-76.146247, 4.2999212], [-76.1462948, 4.2998072], [-76.1463291, 4.2997236], [-76.1463999, 4.2995894], [-76.1464434, 4.2994852], [-76.1464667, 4.2993623], [-76.1464076, 4.2992642], [-76.1463328, 4.2992224], [-76.1461595, 4.2991901], [-76.1457575, 4.2991574], [-76.1452925, 4.2991148], [-76.144966, 4.2990774], [-76.1448856, 4.299027], [-76.1448337, 4.2990277], [-76.1447539, 4.2989464], [-76.1446868, 4.2988587]]}}, {"type": "Feature", "properties": {"RIEGO_DREN": "Drenaje"}, "geometry": {"type": "LineString", "coordinates": [[-76.1546549, 4.3362621], [-76.1490197, 4.3340145], [-76.1491455, 4.332396], [-76.1492255, 4.3314153], [-76.1492455, 4.3300484], [-76.14925, 4.3297446], [-76.1497066, 4.3283105], [-76.1500763, 4.3268162], [-76.1503295, 4.3257929], [-76.1505398, 4.3252762], [-76.15083, 4.3248175], [-76.1513244, 4.3242567], [-76.1516181, 4.3238314], [-76.1519929, 4.3229415], [-76.1522396, 4.3222939], [-76.1523856, 4.3218045], [-76.1525113, 4.3213934], [-76.152586, 4.3212025], [-76.1526358, 4.3207986], [-76.1526416, 4.320561], [-76.1524577, 4.3198432], [-76.1520321, 4.3187117], [-76.1518058, 4.3182742], [-76.1504688, 4.3165351], [-76.1486024, 4.3141282], [-76.1482646, 4.3136884], [-76.1480289, 4.3133816], [-76.147864, 4.3131228], [-76.1476977, 4.3128]]}}, {"type": "Feature", "properties": {"RIEGO_DREN": "Drenaje"}, "geometry": {"type": "LineString", "coordinates": [[-76.1590734, 4.3344616], [-76.1590227, 4.3338596], [-76.1589895, 4.3336791]]}}, {"type": "Feature", "properties": {"RIEGO_DREN": "Drenaje"}, "geometry": {"type": "LineString", "coordinates": [[-76.1546755, 4.3303577], [-76.1545084, 4.3289936], [-76.1550473, 4.3279637], [-76.1548583, 4.3275089], [-76.1547311, 4.3272808], [-76.1546656, 4.3271607], [-76.1545623, 4.3269616], [-76.1545387, 4.3267602], [-76.154785, 4.3263503], [-76.1551364, 4.3256396], [-76.1531783, 4.3244963]]}}, {"type": "Feature", "properties": {"RIEGO_DREN": "Drenaje"}, "geometry": {"type": "LineString", "coordinates": [[-76.1504688, 4.3165351], [-76.1571368, 4.3022153]]}}, {"type": "Feature", "properties": {"RIEGO_DREN": "Drenaje"}, "geometry": {"type": "LineString", "coordinates": [[-76.1535672, 4.3098812], [-76.1633427, 4.3154183]]}}, {"type": "Feature", "properties": {"RIEGO_DREN": "Drenaje"}, "geometry": {"type": "LineString", "coordinates": [[-76.1590535, 4.3344613], [-76.1590734, 4.3344616], [-76.1591017, 4.3349516], [-76.1589805, 4.3353361], [-76.1588654, 4.3354909], [-76.1582758, 4.3354815], [-76.1581644, 4.3366715]]}}, {"type": "Feature", "properties": {"RIEGO_DREN": "Drenaje"}, "geometry": {"type": "LineString", "coordinates": [[-76.1546755, 4.3303577], [-76.1547332, 4.3307019], [-76.1546941, 4.3308694]]}}, {"type": "Feature", "properties": {"RIEGO_DREN": "Drenaje"}, "geometry": {"type": "LineString", "coordinates": [[-76.1634813, 4.297211], [-76.1696818, 4.3028869]]}}, {"type": "Feature", "properties": {"RIEGO_DREN": "Drenaje"}, "geometry": {"type": "LineString", "coordinates": [[-76.1634813, 4.297211], [-76.163421, 4.2971607], [-76.1634029, 4.2971461], [-76.1621883, 4.2989228], [-76.1618312, 4.2994416], [-76.154871, 4.2930542], [-76.1514233, 4.2899921], [-76.1461229, 4.2978662], [-76.1453258, 4.2971588], [-76.144452, 4.2983761]]}}, {"type": "Feature", "properties": {"RIEGO_DREN": "Drenaje"}, "geometry": {"type": "LineString", "coordinates": [[-76.1514233, 4.2899921], [-76.1544675, 4.2854269]]}}, {"type": "Feature", "properties": {"RIEGO_DREN": "Drenaje"}, "geometry": {"type": "LineString", "coordinates": [[-76.1446868, 4.2988587], [-76.1445838, 4.2986877], [-76.144452, 4.2983761], [-76.1443939, 4.2980059], [-76.1442968, 4.2975345], [-76.1441638, 4.2972684], [-76.144006, 4.2970318], [-76.1434166, 4.2964646], [-76.1432227, 4.2961169], [-76.1422727, 4.2942331], [-76.1409141, 4.2915164], [-76.1399579, 4.2893685], [-76.1397598, 4.2887155], [-76.1395406, 4.2883701], [-76.1391225, 4.2880453], [-76.1357163, 4.285177], [-76.134239, 4.2839946]]}}, {"type": "Feature", "properties": {"RIEGO_DREN": "Drenaje"}, "geometry": {"type": "LineString", "coordinates": [[-76.139422, 4.288278], [-76.1415896, 4.285044]]}}, {"type": "Feature", "properties": {"RIEGO_DREN": "Drenaje"}, "geometry": {"type": "LineString", "coordinates": [[-76.1420929, 4.2938736], [-76.1523629, 4.2786693]]}}, {"type": "Feature", "properties": {"RIEGO_DREN": "Drenaje"}, "geometry": {"type": "LineString", "coordinates": [[-76.1482778, 4.2946649], [-76.1502017, 4.2959733]]}}, {"type": "Feature", "properties": {"RIEGO_DREN": "Drenaje"}, "geometry": {"type": "LineString", "coordinates": [[-76.1395756, 4.2795489], [-76.1397634, 4.2795452], [-76.139884, 4.2795428], [-76.1399867, 4.2795197], [-76.140139, 4.2794743], [-76.1403813, 4.2793526], [-76.1412375, 4.2788854], [-76.1414753, 4.278768], [-76.1418511, 4.2785599], [-76.1422327, 4.2783546], [-76.1426138, 4.2781581], [-76.1433364, 4.2777805], [-76.1438642, 4.2775174], [-76.1443759, 4.2772469], [-76.1452249, 4.2768172], [-76.1459741, 4.2764292], [-76.1463758, 4.2762167], [-76.1465894, 4.2761038], [-76.1468746, 4.2760012], [-76.1469928, 4.2759587], [-76.1473087, 4.2757329], [-76.148087, 4.2750518], [-76.1420464, 4.2690154]]}}, {"type": "Feature", "properties": {"RIEGO_DREN": "Drenaje"}, "geometry": {"type": "LineString", "coordinates": [[-76.1394713, 4.2795548], [-76.1392298, 4.2796183], [-76.1390986, 4.2796734], [-76.138803, 4.2797939], [-76.1386428, 4.2798508], [-76.1381078, 4.2800144], [-76.1375177, 4.2802158], [-76.1368209, 4.2804582], [-76.1361524, 4.2798663], [-76.1361381, 4.2798318], [-76.1373655, 4.2783454]]}}, {"type": "Feature", "properties": {"RIEGO_DREN": "Drenaje"}, "geometry": {"type": "LineString", "coordinates": [[-76.1373655, 4.2783454], [-76.1295783, 4.2704931]]}}, {"type": "Feature", "properties": {"RIEGO_DREN": "Drenaje"}, "geometry": {"type": "LineString", "coordinates": [[-76.131614, 4.2672549], [-76.1393244, 4.2745888]]}}, {"type": "Feature", "properties": {"RIEGO_DREN": "Drenaje"}, "geometry": {"type": "LineString", "coordinates": [[-76.1393244, 4.2745888], [-76.1393751, 4.2759761], [-76.1373655, 4.2783454]]}}, {"type": "Feature", "properties": {"RIEGO_DREN": "Drenaje"}, "geometry": {"type": "LineString", "coordinates": [[-76.1359454, 4.2628638], [-76.1391088, 4.2659988]]}}, {"type": "Feature", "properties": {"RIEGO_DREN": "Drenaje"}, "geometry": {"type": "LineString", "coordinates": [[-76.1316165, 4.2672572], [-76.12657, 4.2624722], [-76.1272713, 4.2614179], [-76.1250056, 4.2592696]]}}, {"type": "Feature", "properties": {"RIEGO_DREN": "Drenaje"}, "geometry": {"type": "LineString", "coordinates": [[-76.122447, 4.280698], [-76.1240346, 4.2783048]]}}, {"type": "Feature", "properties": {"RIEGO_DREN": "Drenaje"}, "geometry": {"type": "LineString", "coordinates": [[-76.149148, 4.3277261], [-76.1495268, 4.3261628], [-76.1497533, 4.3253764], [-76.149958, 4.3249296], [-76.1503089, 4.3243802], [-76.1506858, 4.3239461], [-76.1508736, 4.3236078], [-76.151116, 4.3230479], [-76.1515199, 4.3217622], [-76.1515952, 4.3211371], [-76.1516012, 4.320487], [-76.1510491, 4.3191069], [-76.1503274, 4.3179849], [-76.1496279, 4.3170381], [-76.1490663, 4.3163907], [-76.1483162, 4.3153689], [-76.1477219, 4.3146559], [-76.1473298, 4.3141146], [-76.1470826, 4.3137693], [-76.1468902, 4.3133518], [-76.1466369, 4.3127163], [-76.1465225, 4.3122803], [-76.1464415, 4.3119002], [-76.1462589, 4.3113275], [-76.1460603, 4.310876], [-76.1456263, 4.3094299], [-76.1454367, 4.308923], [-76.1453411, 4.3085348], [-76.1451165, 4.3077161], [-76.1449, 4.3070096], [-76.143453, 4.3059565], [-76.1421226, 4.3049368], [-76.1415476, 4.3045343], [-76.1386997, 4.3024212], [-76.134044, 4.2989524], [-76.1247124, 4.2920849], [-76.1239131, 4.2915007], [-76.1237331, 4.2912565]]}}, {"type": "Feature", "properties": {"RIEGO_DREN": "Drenaje"}, "geometry": {"type": "LineString", "coordinates": [[-76.1454256, 4.3088781], [-76.1431127, 4.3122639], [-76.1421471, 4.3137242]]}}, {"type": "Feature", "properties": {"RIEGO_DREN": "Drenaje"}, "geometry": {"type": "LineString", "coordinates": [[-76.1505663, 4.3240837], [-76.1468492, 4.3225652]]}}, {"type": "Feature", "properties": {"RIEGO_DREN": "Drenaje"}, "geometry": {"type": "LineString", "coordinates": [[-76.1416049, 4.3045745], [-76.1385847, 4.3089919], [-76.1341805, 4.3058794], [-76.1206544, 4.2959461]]}}, {"type": "Feature", "properties": {"RIEGO_DREN": "Drenaje"}, "geometry": {"type": "LineString", "coordinates": [[-76.1252156, 4.2992549], [-76.1223003, 4.3035816]]}}, {"type": "Feature", "properties": {"RIEGO_DREN": "Drenaje"}, "geometry": {"type": "LineString", "coordinates": [[-76.1329417, 4.2981412], [-76.1286702, 4.3044827]]}}, {"type": "Feature", "properties": {"RIEGO_DREN": "Drenaje"}, "geometry": {"type": "LineString", "coordinates": [[-76.1385847, 4.3089919], [-76.1371248, 4.3112196]]}}, {"type": "Feature", "properties": {"RIEGO_DREN": "Drenaje"}, "geometry": {"type": "LineString", "coordinates": [[-76.117702, 4.3002791], [-76.1222792, 4.3036176], [-76.1246384, 4.3053603]]}}, {"type": "Feature", "properties": {"RIEGO_DREN": "Drenaje"}, "geometry": {"type": "LineString", "coordinates": [[-76.1144677, 4.305008], [-76.1176932, 4.3002628], [-76.1166546, 4.2995031], [-76.1043167, 4.2903784]]}}, {"type": "Feature", "properties": {"RIEGO_DREN": "Drenaje"}, "geometry": {"type": "LineString", "coordinates": [[-76.1166546, 4.2995031], [-76.1196946, 4.295024], [-76.1207787, 4.2958184], [-76.1206756, 4.2959615]]}}, {"type": "Feature", "properties": {"RIEGO_DREN": "Drenaje"}, "geometry": {"type": "LineString", "coordinates": [[-76.1161484, 4.3025354], [-76.1039258, 4.2933031]]}}, {"type": "Feature", "properties": {"RIEGO_DREN": "Drenaje"}, "geometry": {"type": "LineString", "coordinates": [[-76.1015093, 4.2944519], [-76.112257, 4.2786947]]}}, {"type": "Feature", "properties": {"RIEGO_DREN": "Drenaje"}, "geometry": {"type": "LineString", "coordinates": [[-76.1073826, 4.2858412], [-76.1196946, 4.295024]]}}, {"type": "Feature", "properties": {"RIEGO_DREN": "Drenaje"}, "geometry": {"type": "LineString", "coordinates": [[-76.1106166, 4.2908616], [-76.1117369, 4.2916857], [-76.1116801, 4.2917856], [-76.1185007, 4.2968154]]}}, {"type": "Feature", "properties": {"RIEGO_DREN": "Drenaje"}, "geometry": {"type": "LineString", "coordinates": [[-76.1092241, 4.283476], [-76.1174926, 4.288059], [-76.1151425, 4.2916552]]}}, {"type": "Feature", "properties": {"RIEGO_DREN": "Drenaje"}, "geometry": {"type": "LineString", "coordinates": [[-76.1107344, 4.2812343], [-76.1139194, 4.2835096], [-76.1126436, 4.2853714]]}}, {"type": "Feature", "properties": {"RIEGO_DREN": "Drenaje"}, "geometry": {"type": "LineString", "coordinates": [[-76.1009285, 4.2858139], [-76.1052149, 4.2890192]]}}, {"type": "Feature", "properties": {"RIEGO_DREN": "Drenaje"}, "geometry": {"type": "LineString", "coordinates": [[-76.0930555, 4.2835878], [-76.09827, 4.2874614], [-76.0969642, 4.2893162], [-76.0974853, 4.2896524], [-76.0961187, 4.2915019], [-76.0966637, 4.2917227], [-76.0970729, 4.2918885], [-76.0972903, 4.2919766], [-76.0974454, 4.2924172], [-76.0980332, 4.292888], [-76.098701, 4.2933302], [-76.0991446, 4.2935964], [-76.0999346, 4.2936192], [-76.1002353, 4.2937105], [-76.1006227, 4.2939546], [-76.1007927, 4.2941875], [-76.1009482, 4.2944859], [-76.1011074, 4.2946606], [-76.101343, 4.2946646], [-76.1015093, 4.2944519], [-76.1015925, 4.2945237], [-76.102254, 4.2941441], [-76.1025391, 4.2939749], [-76.1027521, 4.2938484], [-76.1030349, 4.2937896], [-76.1034215, 4.2939017]]}}, {"type": "Feature", "properties": {"RIEGO_DREN": "Drenaje"}, "geometry": {"type": "LineString", "coordinates": [[-76.09827, 4.2874614], [-76.1052032, 4.2781526]]}}, {"type": "Feature", "properties": {"RIEGO_DREN": "Drenaje"}, "geometry": {"type": "LineString", "coordinates": [[-76.0957255, 4.281395], [-76.1002899, 4.2847494]]}}, {"type": "Feature", "properties": {"RIEGO_DREN": "Drenaje"}, "geometry": {"type": "LineString", "coordinates": [[-76.0972498, 4.2793798], [-76.1017785, 4.2827364]]}}, {"type": "Feature", "properties": {"RIEGO_DREN": "Drenaje"}, "geometry": {"type": "LineString", "coordinates": [[-76.0932379, 4.2775306], [-76.093538, 4.278948], [-76.0937887, 4.2795824], [-76.0939496, 4.279864], [-76.0941459, 4.2800185], [-76.0943793, 4.280093], [-76.0946436, 4.2801773], [-76.0949431, 4.2805311], [-76.0952207, 4.2808982], [-76.0954365, 4.2811325], [-76.0957255, 4.281395]]}}, {"type": "Feature", "properties": {"RIEGO_DREN": "Drenaje"}, "geometry": {"type": "LineString", "coordinates": [[-76.0974171, 4.2749816], [-76.0971937, 4.2757259], [-76.0971095, 4.2761234], [-76.0970595, 4.2764302], [-76.097031, 4.2767566], [-76.0970275, 4.2768896], [-76.0975878, 4.2783858], [-76.0976867, 4.2787515], [-76.0976884, 4.2788179], [-76.0972498, 4.2793798]]}}, {"type": "Feature", "properties": {"RIEGO_DREN": "Drenaje"}, "geometry": {"type": "LineString", "coordinates": [[-76.168092, 4.2769551], [-76.1670663, 4.2795239], [-76.1666062, 4.2807334], [-76.1663097, 4.281446], [-76.1662211, 4.2816979], [-76.1661971, 4.2818383], [-76.1664145, 4.2821707], [-76.1668504, 4.2828519], [-76.1672854, 4.2835191], [-76.1678252, 4.284354], [-76.1681492, 4.2848435], [-76.1691942, 4.2839907], [-76.170939, 4.2825479], [-76.1718892, 4.2817671]]}}, {"type": "Feature", "properties": {"RIEGO_DREN": "Drenaje"}, "geometry": {"type": "LineString", "coordinates": [[-76.1547727, 4.2929669], [-76.1589902, 4.2899228], [-76.167017, 4.2831453]]}}, {"type": "Feature", "properties": {"RIEGO_DREN": "Drenaje"}, "geometry": {"type": "LineString", "coordinates": [[-76.1073844, 4.2858425], [-76.1026473, 4.2823245]]}}, {"type": "Feature", "properties": {"RIEGO_DREN": "Drenaje"}, "geometry": {"type": "LineString", "coordinates": [[-76.1589895, 4.3336791], [-76.1588904, 4.3333596], [-76.1586588, 4.3334088], [-76.1584817, 4.333502], [-76.1583248, 4.3335531], [-76.1581588, 4.3335243], [-76.1580012, 4.3334593], [-76.1578838, 4.3334676], [-76.157587, 4.3335861], [-76.1574198, 4.3336446], [-76.1570424, 4.3336518], [-76.1569091, 4.3336305], [-76.1566871, 4.3342255], [-76.1539947, 4.3331595]]}}, {"type": "Feature", "properties": {"RIEGO_DREN": "Drenaje"}, "geometry": {"type": "LineString", "coordinates": [[-76.1539947, 4.3331595], [-76.1546941, 4.3308694]]}}, {"type": "Feature", "properties": {"RIEGO_DREN": "Drenaje"}, "geometry": {"type": "LineString", "coordinates": [[-76.1531783, 4.3244963], [-76.152761, 4.3251278], [-76.1523817, 4.3255149], [-76.1523085, 4.3258083], [-76.151793, 4.3270892], [-76.1517663, 4.327163], [-76.1501543, 4.3265011]]}}, {"type": "Feature", "properties": {"RIEGO_DREN": "Drenaje"}, "geometry": {"type": "LineString", "coordinates": [[-76.1579444, 4.3312127], [-76.1585581, 4.3302313], [-76.1550473, 4.3279637]]}}, {"type": "Feature", "properties": {"RIEGO_DREN": "Drenaje"}, "geometry": {"type": "LineString", "coordinates": [[-76.1618817, 4.3187364], [-76.15773, 4.3231919], [-76.1573083, 4.3237393], [-76.1523401, 4.3219518]]}}, {"type": "Feature", "properties": {"RIEGO_DREN": "Drenaje"}, "geometry": {"type": "LineString", "coordinates": [[-76.1542445, 4.322637], [-76.1552272, 4.3202332]]}}, {"type": "Feature", "properties": {"RIEGO_DREN": "Drenaje"}, "geometry": {"type": "LineString", "coordinates": [[-76.1673184, 4.3192205], [-76.1665149, 4.3181552], [-76.1666729, 4.3180552], [-76.1673581, 4.3174342], [-76.1677139, 4.317107], [-76.1679964, 4.3168432], [-76.1669907, 4.3162384], [-76.1688789, 4.3121852], [-76.16889, 4.3121654]]}}, {"type": "Feature", "properties": {"RIEGO_DREN": "Drenaje"}, "geometry": {"type": "LineString", "coordinates": [[-76.1254141, 4.2765538], [-76.1350992, 4.2620368], [-76.1249999, 4.2520006]]}}, {"type": "Feature", "properties": {"RIEGO_DREN": "Drenaje"}, "geometry": {"type": "LineString", "coordinates": [[-76.1567566, 4.3030316], [-76.1609809, 4.3054304]]}}, {"type": "Feature", "properties": {"RIEGO_DREN": "Drenaje"}, "geometry": {"type": "LineString", "coordinates": [[-76.0616927, 4.3157983], [-76.0611445, 4.3169132], [-76.0642055, 4.3201744], [-76.0638284, 4.3206867]]}}]}